,Name,Phone Number,Website2,Company Name,Company Name#,Address,Place,Zip,Sector,Product,Website,Region,Place.1,1,2,Unnamed: 12
0,SunTrac Solar,NA,NA,SunTrac Solar,SunTrac Solar,,"Golden,, Colorado",80403,Solar,Colorado based solar thermal integrator,,,Golden,, Colorado,
0,Capital E,NA,NA,Capital E,Capital E,,"Washington, Washington, DC",DC 20003,"Services,Solar",Capital E is a consulting firm which provides services such as technology evaluation and strategic marketing support for mainly fuel cell and solar power industries.,,,Washington, Washington, DC,
0,FRONIUS USA LLC,NA,NA,FRONIUS USA LLC,FRONIUS USA LLC,,"Brighton, Michigan 48116 USA, Michigan",,Solar,Focused on welding machines and solar inverters.,,,Brighton, Michigan 48116 USA, Michigan,
0,Solar International Management Inc,NA,NA,Solar International Management Inc,Solar International Management Inc,,"Washington,DC, Washington, DC",20006,Solar,Manager of the Solar Bank funds.,,,Washington,DC, Washington,
0,Solarponics,1(805) 466-5595,http://www.facebook.com/solarponics,Solarponics,Solarponics,4700 El Camino Real,"Atascadero, California,United States",93422,"Renewable Energy,Solar,Wind energy",,http://www.solarponics.com,,Atascadero, California,United States,
0,"A1 Sun, Inc.",(510) 526-5715,www.a1suninc.com ,"A1 Sun, Inc.","A1 Sun, Inc.",1435 4th St.,"Berkeley, California,United States",94710,Solar,Solar PV Design and Installation,http://www.a1suninc.com,Bay Area,Berkeley, California,United States,
0,PetersenDean Roofing and Solar,5105895037,www.petersendean.com ,PetersenDean Roofing and Solar,PetersenDean Roofing and Solar,39300 Civic Center Drive,"Fremont, California,United States",94538,"Efficiency,Renewable Energy,Services,Solar",Petersendean Roofing and Solar,http://www.petersendean.com,,Fremont, California,United States,
0,AMECO Solar,888-595-9570,https://www.facebook.com/AmecoSolar/,AMECO Solar,AMECO Solar,7623 Somerset Blvd.,"Paramount, California,United States",90723,Solar,,http://www.solarexpert.com,,Paramount, California,United States,
0,Ameco Solar,888-595-9570,https://www.facebook.com/AmecoSolar/,Ameco Solar,Ameco Solar,7623 Somerset Blvd.,"Paramount, California,United States",90723,Solar,"Ameco is a licensed solar energy contractor operating principally in Los Angeles and Orange Counties. Ameco designs, installs and repairs solar energy systems for homes and businesses in Southern California. CA State License No. 483280",http://www.solarexpert.com,,Paramount, California,United States,
0,Run on Sun,626-793-6025,NA,Run on Sun,Run on Sun,655 S Raymond AV,"Pasadena, California,United States",91105,Solar,,http://runonsun.com/,Southern CA Area,Pasadena, California,United States,
0,3Degrees,866.476.9378,www.3degreesinc.com/ ,3Degrees,3Degrees,407 Sansome,"San Francisco, California,United States",94111,"Bioenergy,Buildings,Carbon,Geothermal energy,Services,Solar,Wind energy,Biofuels,Biomass,Hydro,Marine and Hydrokinetic,Renewable Energy",Environmental Commodities,http://www.3degreesinc.com/,Bay Area,San Francisco, California,United States,
0,"Solaris Technology Industry, Inc.",720-474-6050,https://www.facebook.com/solarisshopcom,"Solaris Technology Industry, Inc.","Solaris Technology Industry, Inc.",14405 W Colfax Ave # 288,"Lakewood, Colorado,United States",80401,"Renewable Energy,Solar","Solar Panels, Inverters, Charge Controllers, Batteries, Solar Power Systems, Parts & Accessories",http://www.solaris-shop.com,,Lakewood, Colorado,United States,
0,Wave Energy - Efficiency Solutions,3219142347,https://www.facebook.com/gowaveenergy/,Wave Energy - Efficiency Solutions,Wave Energy - Efficiency Solutions,1961 Palmer Dr.,"Melbourne, Florida,United States",32935,"Buildings,Efficiency,Solar","Solar PV, Energy Efficient Upgrades",http://www.gowaveenergy.com,,Melbourne, Florida,United States,
0,ALDACOR INC,NA,www.aldacor.com ,ALDACOR INC,ALDACOR INC,"1820 E. 17th St
Suite 260","Idaho Falls, ID,United States",83404,"Geothermal energy,Hydro,Renewable Energy,Services,Solar,Wind energy",,http://www.aldacor.com,,Idaho Falls, ID,United States,
0,Inovus,(208) 908-0627,www.inovussolar.com ,Inovus,Inovus,"3380 West Americana Terrace, Suite 230","Boise, Idaho,United States",83706,Solar,http://www.inovussolar.com/solar-street-lighting-products/,http://www.inovussolar.com,Pacific Northwest Area,Boise, Idaho,United States,
0,ALDACOR,208 552-5202,www.aldacor.com ,ALDACOR,ALDACOR,"1820 E. 17th St
Suite 260","Idaho Falls, Idaho,United States",83404,"Buildings,Efficiency,Geothermal energy,Hydro,Renewable Energy,Services,Solar,Wind energy",,http://www.aldacor.com,,Idaho Falls, Idaho,United States,
0,Illinois Institute for Rural Affairs,(309)298-2237,www.iira.org ,Illinois Institute for Rural Affairs,Illinois Institute for Rural Affairs,,"Macomb, Illinois,United States",61455,"Bioenergy,Biofuels,Efficiency,Renewable Energy,Services,Solar,Wind energy",,http://www.iira.org,,Macomb, Illinois,United States,
0,Patriot Solar Group,NA,www.patriotsolargroup.com ,Patriot Solar Group,Patriot Solar Group,1007 INDUSTRIAL BLVD.,"ALBION, Michigan,United States",49224,"Renewable Energy,Solar","MOUNTING SYSTEMS, EPC, INSTALLATIONS",http://www.patriotsolargroup.com,,ALBION, Michigan,United States,
0,SolarSkies,NA,NA,SolarSkies,SolarSkies,106 Donovan Drive,"Alexandria, Minnesota,United States",56308,Solar,,,,Alexandria, Minnesota,United States,
0,Microgrid Energy,888-734-3033,www.microgridenergy.com ,Microgrid Energy,Microgrid Energy,8001 Forsyth Blvd.,"St. Louis, Missouri,United States",63105,"Efficiency,Renewable Energy,Solar,Wind energy",EPC Solar and EE,http://www.microgridenergy.com,,St. Louis, Missouri,United States,
0,Wanzek Construction,2816064172,www.wanzek.com ,Wanzek Construction,Wanzek Construction,2028 2nd Avenue NW,"West Fargo, ND,United States",58078,"Geothermal energy,Renewable Energy,Solar,Wind energy",Turnkey Construction Services,http://www.wanzek.com,Texas Area,West Fargo, ND,United States,
0,RBI Solar Inc,513 242-0816,www.rbisolar.com ,RBI Solar Inc,RBI Solar Inc,5513 Vine Street,"Cincinnati, Ohio,United States",45217,"Renewable Energy,Services,Solar",Solar Mounting Systems,http://www.rbisolar.com,,Cincinnati, Ohio,United States,
0,The Utilities Group Inc,513-481-7954,www.theutilitiesgroup.com ,The Utilities Group Inc,The Utilities Group Inc,"11260 Chester Rd, Suite 540","Cincinnati, Ohio,United States",45246,"Biomass,Buildings,Efficiency,Renewable Energy,Services,Solar,Transmission,Wind energy",Energy Procurement;Real Time Energy Monitoring;Business and legal services;Consulting;Energy audits/weatherization;Engineering/architectural/design;Installation;Investment/finances;Trainining and education,http://www.theutilitiesgroup.com,,Cincinnati, Ohio,United States,
0,Ultimate Best Buy LLC,513-413-1319,www.ultimatebestbuy.com ,Ultimate Best Buy LLC,Ultimate Best Buy LLC,,"Lebanon, Ohio,United States",45036,"Efficiency,Renewable Energy,Services,Solar",,http://www.ultimatebestbuy.com,,Lebanon, Ohio,United States,
0,"Eco Energy International, LLC",1-419-522-4444,https://www.facebook.com/ecohydrogen,"Eco Energy International, LLC","Eco Energy International, LLC",233 Park Ave East,"Mansfield, Ohio,United States",44902,"Bioenergy,Biofuels,Biomass,Hydrogen,Renewable Energy,Solar,Wind energy",,http://www.EcoEnergyInternational.com,,Mansfield, Ohio,United States,
0,Elemental Energy,NA,www.elementalenergy.net ,Elemental Energy,Elemental Energy,14500 SW 92nd Ave,"Portland, Oregon,United States",97224,"Biofuels,Biomass,Buildings,Efficiency,Geothermal energy,Renewable Energy,Solar,Vehicles,Wind energy",,http://www.elementalenergy.net,Pacific Northwest Area,Portland, Oregon,United States,
0,Community Energy Inc,NA,www.communityenergyinc.com/ ,Community Energy Inc,Community Energy Inc,"Three Radnor Corporate Center
100 Matsonford Road, Suite 300","Wayne, Pennsylvania,United States",PA 19087,"Renewable Energy,Solar,Wind energy","CEI develops and invests in wind farms and solar farms in North East USA. It also markets the electricity it produces under the brand ""NewWind Energy"" to consumers.",http://www.communityenergyinc.com/,,Wayne, Pennsylvania,United States,
0,HE Solar LLC,512-921-6763,https://www.facebook.com/hesolarllc/,HE Solar LLC,HE Solar LLC,"100 Precision Drive, Suite 202","Buda, Texas,United States",78610,Solar,,http://www.hesolarllc.com,,Buda, Texas,United States,
0,Polymet Alloys Inc,NA,NA,Polymet Alloys Inc,Polymet Alloys Inc,,"Birmingham, Alabama",35242,Solar,"US-based supplier of ferrous and non-ferrous alloy; offers metallurgical silicon to the solar industry that is exclusively sourced from Brazilian metal producer, Rima Industrial.",,,Birmingham, Alabama,,
0,Affordable Solar Hot Water and Power LLC,334-828-1024,www.asolarpro.com ,Affordable Solar Hot Water and Power LLC,Affordable Solar Hot Water and Power LLC,,"Dothan, Alabama",36305,Solar,Solar and Energy Efficiency for buildings and homes,http://www.asolarpro.com,,Dothan, Alabama,,
0,ACME solar works,877-226-3004,www.acmesolarworks.net/ ,ACME solar works,ACME solar works,20738 Brown Lane,"Summerdale, Alabama",36580,Solar,"Solar power systems, products",http://www.acmesolarworks.net/,,Summerdale, Alabama,,
0,Remote Power Inc.,907-457-4299,www.remotepowerinc.com/ ,Remote Power Inc.,Remote Power Inc.,981 Gold Mine Tr.,"Fairbanks, Alaska",99712,Solar,Solar and wind electric power systems,http://www.remotepowerinc.com/,,Fairbanks, Alaska,,
0,EV Solar Products,(928) 636-2201,www.evsolar.com/ ,EV Solar Products,EV Solar Products,2655 N. Highway 89,"Chino Valley, Arizona",86323,Solar,renewable energy products and services,http://www.evsolar.com/,,Chino Valley, Arizona,,
0,Pacific Blue Energy,NA,NA,Pacific Blue Energy,Pacific Blue Energy,,"Flagstaff, Arizona",86001,Solar,Arizona-based solar project developer.,,,Flagstaff, Arizona,,
0,"AllWest Energy, Inc.",480-836-1110,www.allwestenergy.com/ ,"AllWest Energy, Inc.","AllWest Energy, Inc.",16847 E. Parkview Ave,"Fountain Hills, Arizona",85268,Solar,Solar electric systems,http://www.allwestenergy.com/,,Fountain Hills, Arizona,,
0,Corporate International Operations,NA,NA,Corporate International Operations,Corporate International Operations,,"Fountain Hills, Arizona",AZ 85268,Solar,"Supplier of solar cells, module manufacturing equipment and materials.",,,Fountain Hills, Arizona,,
0,"Dependable Solar Products, Inc.",480-967-7781,www.dependablesolarproducts.co ,"Dependable Solar Products, Inc.","Dependable Solar Products, Inc.","4049 E. Presidio, Suite 127","Mesa, Arizona",85215,Solar,"Solar, Wind, Pool Pumping, Industrial Pumping and Supply and Water Sytems",http://www.dependablesolarproducts.com/,,Mesa, Arizona,,
0,"Agenera, LLC",602-445-6498,www.agenera.com/ ,"Agenera, LLC","Agenera, LLC",P.O. Box 15544,"Phoenix, Arizona",85060,Solar,Solar energy systems,http://www.agenera.com/,,Phoenix, Arizona,,
0,Arizona Solar Tech,NA,NA,Arizona Solar Tech,Arizona Solar Tech,,"Phoenix, Arizona",85040,"Solar,Vehicles","Designs and installs solar PV systems for vehicles, domestic and light industrial applications.",,,Phoenix, Arizona,,
0,EDGE Energy LLC,NA,NA,EDGE Energy LLC,EDGE Energy LLC,,"Phoenix, Arizona",85018,Solar,Arizona-based solar developer focused on building commercial and utility-scale projects throughout the American Southwest.,,,Phoenix, Arizona,,
0,Perfect Power,NA,NA,Perfect Power,Perfect Power,,"Phoenix, Arizona",85028,Solar,"Perfect Power operates the worldâ€™s largest solar power community, GreenWood Ranch Estates, 520 five-acre lots in Arizona.",,,Phoenix, Arizona,,
0,Phasor Energy Company Inc,NA,NA,Phasor Energy Company Inc,Phasor Energy Company Inc,,"Phoenix, Arizona",85046-1627,"Services,Solar",Phasor Energy Company offer a range of engineering and consulting services in the field of solar energy.,,,Phoenix, Arizona,,
0,African Energy,NA,NA,African Energy,African Energy,,"Scottsdale, Arizona",85267,Solar,"African Energy is a wholesale distributor of back-up and solar power equipment, exclusively for Africa.",,,Scottsdale, Arizona,,
0,"American Solar Electric, Inc.",480-994-1440,www.americanpv.com/ ,"American Solar Electric, Inc.","American Solar Electric, Inc.","1475 N. Scottsdale Rd., Suite #410","Scottsdale, Arizona",85257,Solar,Solar electric systems,http://www.americanpv.com/,,Scottsdale, Arizona,,
0,SunRider Solar LLC,NA,NA,SunRider Solar LLC,SunRider Solar LLC,,"Scottsdale, Arizona",85266,"Services,Solar",Arizona-based solar services company providing turnkey solar installations.,,,Scottsdale, Arizona,,
0,Amtech Systems Inc,NA,NA,Amtech Systems Inc,Amtech Systems Inc,,"Tempe, Arizona",85281,Solar,"US-based manufacturer of capital equipment such as wafer handling automation, thermal semiconductor processing equipment, and related consumables for semiconductor and solar industries.",,,Tempe, Arizona,,
0,First Solar,602-414-9300," http://www.nrel.gov/research_review/2007/deployment_thin_film.html
",First Solar,First Solar,"350 West Washington Street, Suite 600","Tempe, Arizona",85281,Solar,Solar energy systems,http://www.firstsolar.com/,,Tempe, Arizona,,
0,Expert Solar Systems,520-749-3538,www.expertsolar.com/ ,Expert Solar Systems,Expert Solar Systems,11700 E. Sneller Vista,"Tucson, Arizona",85749,Solar,Solar energy systems,http://www.expertsolar.com/,,Tucson, Arizona,,
0,GeoInnovation,(520) 615-3883,www.geoinnovation.com/ ,GeoInnovation,GeoInnovation,"2828 N. Country Club, Suite 103","Tucson, Arizona",85716,Solar,,http://www.geoinnovation.com/,,Tucson, Arizona,,
0,"Sundial Energy, Inc.",520-884-5166,www.sundialenergy.com/ ,"Sundial Energy, Inc.","Sundial Energy, Inc.",P.O. Box 1309,"Tucson, Arizona",85702,Solar,BIPV solutions,http://www.sundialenergy.com/,,Tucson, Arizona,,
0,Tempronics,NA,NA,Tempronics,Tempronics,,"Tucson, Arizona",85750,Solar,"Arizona-based developer of nano-scale solid-state cooling and heat conversion devices that have applications for solar, as well as air conditioning, automobiles, aviation, refrigeration, and thermal management for electronics and computer processors.",,,Tucson, Arizona,,
0,"Solar Energy Squared, LLC",501-244-9522,www.solarenergysquared.com ,"Solar Energy Squared, LLC","Solar Energy Squared, LLC","116 Ottenheimer Plaza, President Clinton Avenue","Little Rock, Arkansas",72201,Solar,Utility Scale Solar,http://www.solarenergysquared.com,,Little Rock, Arkansas,,
0,Lighthouse Solar Laguna Beach,(949) 584-4800,www.lighthousesolar.com ,Lighthouse Solar Laguna Beach,Lighthouse Solar Laguna Beach,23151 Alcalde Dr. Suite 2-B,"Laguna Hills, CA",92653,Solar,,http://www.lighthousesolar.com,,Laguna Hills, CA,,
0,Acro Energy,(209) 847-2977,NA,Acro Energy,Acro Energy,598 S. Sierra Ave.,"Oakdale, CA",95361,Solar,solar energy systems,http://acroenergy.com/,Bay Area,Oakdale, CA,,
0,Lighthouse Solar Central Valley,(559) 260-0796,www.lighthousesolar.com ,Lighthouse Solar Central Valley,Lighthouse Solar Central Valley,2135 McCall Ave.,"Selma, CA",93662,Solar,,http://www.lighthousesolar.com,,Selma, CA,,
0,HSC Solar,8882726868,www.mysolarsystem.com ,HSC Solar,HSC Solar,18375 Ventura Blvd. #206,"Tarzana, CA",91356,Solar,Solar Installation,http://www.mysolarsystem.com,Southern CA Area,Tarzana, CA,,
0,"Bloo Solar, Inc",NA,www.bloosolar.com ,"Bloo Solar, Inc","Bloo Solar, Inc",2545 Boatman Avenue,"West Sacramento, CA",95691,Solar,,http://www.bloosolar.com,Bay Area,West Sacramento, CA,,
0,Desert Solar,NA,NA,Desert Solar,Desert Solar,,"Apple Valley, California",92308,"Renewable Energy,Solar","Selling and installing commercial renewable energy projects, mainly solar.",,,Apple Valley, California,,
0,Solar Capital Inc,NA,NA,Solar Capital Inc,Solar Capital Inc,,"Benicia, California",94510,Solar,Start-up investment firm seeking control positions in companies in the solar value chain,,,Benicia, California,,
0,Borrego Solar,NA,www.borregosolar.com/ ,Borrego Solar,Borrego Solar,2560 9th Street,"Berkeley, California",94710,Solar,Design and install solar systems,http://www.borregosolar.com/,Bay Area,Berkeley, California,,
0,Borrego Solar,NA,www.borregosolar.com/ ,Borrego Solar,Borrego Solar,2560 9th Street,"Berkeley, California",94710,Solar,Design and install solar systems,http://www.borregosolar.com/,Bay Area,Berkeley, California,,
0,Helio Micro Utility Inc,NA,www.heliomu.com/ ,Helio Micro Utility Inc,Helio Micro Utility Inc,1827A Fifth Street,"Berkeley, California",94710,Solar,Contracts with solar installers to build and maintain solar power systems,http://www.heliomu.com/,Bay Area,Berkeley, California,,
0,RawSolar,NA,NA,RawSolar,RawSolar,,"Berkeley, California",,Solar,California-based startup aiming to commercialise concentrating solar thermal parabolic dish systems for process heat applications.,,,Berkeley, California,,
0,SolarNexus,(510) 842-7875,www.solarnexus.com ,SolarNexus,SolarNexus,"1563 Solano Ave., Suite 251","Berkeley, California",94707,Solar,SolarHub,http://www.solarnexus.com,Bay Area,Berkeley, California,,
0,Tessera Solar,NA,www.tesserasolar.com/ ,Tessera Solar,Tessera Solar,2600 10th Street,"Berkeley, California",94710,Solar,Developer of utility scale solar power plants based on dish-Stirling engine designs,http://www.tesserasolar.com/,Bay Area,Berkeley, California,,
0,Tessera Solar,NA,www.tesserasolar.com/ ,Tessera Solar,Tessera Solar,2600 10th Street,"Berkeley, California",94710,Solar,Developer of utility scale solar power plants based on dish-Stirling engine designs,http://www.tesserasolar.com/,Bay Area,Berkeley, California,,
0,Chuckawalla Valley State Prison,NA,NA,Chuckawalla Valley State Prison,Chuckawalla Valley State Prison,,"Blythe, California",92226,Solar,"Prison located in Chuckawalla Valley, California. It is a power purchaser of the solar PV array located at the prison, but owned and maintained by SunEdison.",,,Blythe, California,,
0,Solmetric Corporation,NA,NA,Solmetric Corporation,Solmetric Corporation,,"Bolinas, California",94924,Solar,US-based manufacturer of solar test and measuring equipments.,,,Bolinas, California,,
0,KJC Operating Company,NA,NA,KJC Operating Company,KJC Operating Company,,"Boron, California",93516,Solar,"Developed solar thermal electricity generating plants, using Luz technology, in the Mojave Desert.",,,Boron, California,,
0,Lighthouse Solar Diablo Valley,(925) 420-5121,www.lighthousesolar.com ,Lighthouse Solar Diablo Valley,Lighthouse Solar Diablo Valley,2420 Sand Creek Road - C1308,"Brentwood, California",94513,Solar,,http://www.lighthousesolar.com,,Brentwood, California,,
0,Advance Power Co,NA,NA,Advance Power Co,Advance Power Co,,"Calpella, California",95418,"Hydro,Solar,Wind energy","Distributor of stand alone and backup power systems based on solar, hydro, wind and fuel cell energy.",,,Calpella, California,,
0,Real Goods Solar Campbell,408-370-3600,www.realgoodssolar.com ,Real Goods Solar Campbell,Real Goods Solar Campbell,1624 Dell Avenue,"Campbell, California",95008,Solar,,http://www.realgoodssolar.com,,Campbell, California,,
0,Regrid Power,NA,NA,Regrid Power,Regrid Power,,"Campbell, California",95008,"Renewable Energy,Services,Solar","REgrid Power is a renewable energy design, installation, and services company which is specialised in solar photovoltaic systems.",,,Campbell, California,,
0,Solstice Solar Systems LLC,NA,NA,Solstice Solar Systems LLC,Solstice Solar Systems LLC,,"Campbell, California",95008-6906,Solar,US-based manufacturer of PV inverters and wires to connect solar panels.,,,Campbell, California,,
0,Bethel Energy LLC,NA,NA,Bethel Energy LLC,Bethel Energy LLC,,"Cardiff, California",92007,Solar,"Solar thermal electricity generation (STEG) project developer, to use parabolic trough design with syngas made from biofuel as a backup fuel.",,,Cardiff, California,,
0,Solartech Power,NA,NA,Solartech Power,Solartech Power,,"Cerritos, California",90703,Solar,Solartech power is a distributer of solar modules.,,,Cerritos, California,,
0,FAFCO Inc,NA,NA,FAFCO Inc,FAFCO Inc,,"Chico, California",95928,Solar,US manufacturer of solar pool and residential heating using polymer and thermal energy storage.,,,Chico, California,,
0,Solahart All Valley Energy Systems,NA,NA,Solahart All Valley Energy Systems,Solahart All Valley Energy Systems,,"Clovis, California",93612,Solar,Solar contractor installing all types of solar energy.,,,Clovis, California,,
0,Mitsubishi Electric and Electronics USA Inc,NA,NA,Mitsubishi Electric and Electronics USA Inc,Mitsubishi Electric and Electronics USA Inc,,"Cypress, California",90630,Solar,"Markets and supports consumer, commercial and industrial electronic products in US, including solar powered.",,,Cypress, California,,
0,Blue Oak Energy,(530) 747-2026,www.blueoakenergy.com ,Blue Oak Energy,Blue Oak Energy,4614 Second Street,"Davis, California",95618,Solar,"photovoltaics, design and engineering, feasibility studies, turn-key installation, system maintenance, PV products",http://www.blueoakenergy.com,Bay Area,Davis, California,,
0,Verve Solar Consulting,NA,www.vervesolar.com ,Verve Solar Consulting,Verve Solar Consulting,,"Davis, California",95616,Solar,solar business courses,http://www.vervesolar.com,Bay Area,Davis, California,,
0,Ambient Control Systems,NA,www.ambientalert.com/main.html ,Ambient Control Systems,Ambient Control Systems,1810 Gillespie Way,"El Cajon, California",92020,Solar,Solar energy device with a computerized energy management,http://www.ambientalert.com/main.html,Southern CA Area,El Cajon, California,,
0,Solarmer Energy Inc,NA,NA,Solarmer Energy Inc,Solarmer Energy Inc,,"El Monte, California",91731,Solar,California-based developer of polymer solar cells.,,,El Monte, California,,
0,"8minutenergy Renewables, LLC",NA,www.8minutenergy.com ,"8minutenergy Renewables, LLC","8minutenergy Renewables, LLC","111 Woodmere Road, Suite 190","Folsom, California",95630,Solar,California based project developer,http://www.8minutenergy.com,,Folsom, California,,
0,SolarAire LLC,NA,NA,SolarAire LLC,SolarAire LLC,,"Folsom, California",,Solar,Developing a solar thermal air conditioning unit.,,,Folsom, California,,
0,SolarCity,NA,www.solarcity.com/ ,SolarCity,SolarCity,393 Vintage Park Drive,"Foster City, California",94404,Solar,Solar installer,http://www.solarcity.com/,Bay Area,Foster City, California,,
0,SolarCity Corp,NA,NA,SolarCity Corp,SolarCity Corp,,"Foster City, California",94404,Solar,US-based designer and installer of solar systems for domestic and commercial use.,,,Foster City, California,,
0,BizLink Technology,NA,NA,BizLink Technology,BizLink Technology,,"Fremont, California",94538,Solar,"California-based manufacturer of solar modules, junction boxes, connectors and wires.",,,Fremont, California,,
0,"REFUsol, Inc.",NA,NA,"REFUsol, Inc.","REFUsol, Inc.",,"Fremont, California",94538,Solar,Inverters,http://americas.refusol.com/,Bay Area,Fremont, California,,
0,Solyndra,NA,www.solyndra.com ,Solyndra,Solyndra,47700 Kato Road,"Fremont, California",94538,Solar,cylindrical solar panels,http://www.solyndra.com,Bay Area,Fremont, California,,
0,Real Goods Solar Fresno,559-457-8365,www.realgoodssolar.com ,Real Goods Solar Fresno,Real Goods Solar Fresno,3109 N. Miami Avenue #101,"Fresno, California",93727,Solar,,http://www.realgoodssolar.com,,Fresno, California,,
0,Real Goods Solar Fullerton,714-578-5981,www.realgoodssolar.com/ ,Real Goods Solar Fullerton,Real Goods Solar Fullerton,2466 E Fender Ave Unit F,"Fullerton, California",92831,Solar,,http://www.realgoodssolar.com/,,Fullerton, California,,
0,SolarPro Energy International,NA,NA,SolarPro Energy International,SolarPro Energy International,,"Granite Bay, California",95746,Solar,SolarPro Energy installs solar power systems using PV panels for residential and commercial properties.,,,Granite Bay, California,,
0,SMA America,NA,NA,SMA America,SMA America,,"Grass Valley, California",95945,Solar,"Supplies the North and South American markets with the ""Sunny Boy"" solar inverter.",,,Grass Valley, California,,
0,SolarNet,NA,NA,SolarNet,SolarNet,,"Healdsburg, California",95448,Solar,"Solar project developer with subsidiaries involved in the distribution, installation and financing of solar projects.",,,Healdsburg, California,,
0,Stellar Energy Solutions Inc,NA,NA,Stellar Energy Solutions Inc,Stellar Energy Solutions Inc,,"Healdsburg, California",95448,"Renewable Energy,Solar",Turn-key renewable energy solutions provider specializing in solar electric roofing.,,,Healdsburg, California,,
0,808 Investments LLC,NA,NA,808 Investments LLC,808 Investments LLC,,"Huntington Beach, California",92649,Solar,California-based boutique investment banking firm focusing on solar and cogeneration project development or acquisition.,,,Huntington Beach, California,,
0,DRI Companies,NA,NA,DRI Companies,DRI Companies,,"Irvine, California",92614,Solar,"US-based residential and commercial installer of turnkey solar systems, through subsidiary iDRI Energy.",,,Irvine, California,,
0,Microsemi Corp,NA,NA,Microsemi Corp,Microsemi Corp,,"Irvine, California",92614,Solar,"US-based manufacturer of analog mixed signal integrated circuits, semiconductors, and solar inverters.",,,Irvine, California,,
0,Solar Monkey,NA,NA,Solar Monkey,Solar Monkey,,"Irvine, California",92618,Solar,Solar Monkey installs PV systems for commercial and industrial users.,,,Irvine, California,,
0,YBR Solar,NA,www.ybrsolar.com/ ,YBR Solar,YBR Solar,"2223 Avenida de la Playa, Suite 120","La Jolla, California",92037,Solar,Developing a design for a solar cell that is 50% more efficient at converting sunlight to electricity,http://www.ybrsolar.com/,Southern CA Area,La Jolla, California,,
0,New Millennium Power,NA,NA,New Millennium Power,New Millennium Power,,"Laguna Niguel, California",92677,Solar,"Solar system installer and integrator operating in Orange County, California.",,,Laguna Niguel, California,,
0,WePOWER,NA,NA,WePOWER,WePOWER,,"Laguna Niguel, California",92677,"Solar,Wind energy",California-based developer of micro-scale vertical axis wind turbines and hybrid solar-wind energy systems for residential and commercial customers.,,,Laguna Niguel, California,,
0,Solar Maid Ventura County,661-575-5212,www.solarmaidvc.com ,Solar Maid Ventura County,Solar Maid Ventura County,,"Lancaster, California",,Solar,Solar Operations and Maintenance,http://www.solarmaidvc.com,Southern CA Area,Lancaster, California,,
0,Cool Earth Solar,925.454.8506,www.coolearthsolar.com/ ,Cool Earth Solar,Cool Earth Solar,"4659 Las Positas Rd, Bldg C","Livermore, California",94551,Solar,Electricty from High Concentrating PV,http://www.coolearthsolar.com/,Bay Area,Livermore, California,,
0,CIM Group Inc,NA,NA,CIM Group Inc,CIM Group Inc,,"Los Angeles, California",90028,Solar,Los Angeles-based real estate fund manager. The company has purchased a solar project portfolio which they will develop through a newly formed subsidiary also called SKyPower.,,,Los Angeles, California,,
0,Akeena Solar,408-402-9400,www.akeena.com/ ,Akeena Solar,Akeena Solar,16005 Los Gatos Blvd.,"Los Gatos, California",95032,Solar,"Solar power systems, products",http://www.akeena.com/,,Los Gatos, California,,
0,Akeena Solar Inc,NA,NA,Akeena Solar Inc,Akeena Solar Inc,,"Los Gatos, California",CA 95032,Solar,Residential and commercial solar electric system installer in the US.,,,Los Gatos, California,,
0,Mariani Energy Group,NA,NA,Mariani Energy Group,Mariani Energy Group,,"Los Gatos, California",95032,"Renewable Energy,Services,Solar",,,,Los Gatos, California,,
0,Sol Solution,NA,www.Sol-Solution.net,Sol Solution,Sol Solution,,"Los Gatos, California",95030,Solar,"Rainbow Concentrator, Current matching multijunction Solar Cell",http://www.Sol-Solution.net,Bay Area,Los Gatos, California,,
0,Tigo Energy,NA,NA,Tigo Energy,Tigo Energy,,"Los Gatos, California",95032,Solar,"Tigo Energy builds hardware and software intelligence into solar energy installations, making them more efficient, more manageable, and safer.",,,Los Gatos, California,,
0,Solaren Corporation,NA,NA,Solaren Corporation,Solaren Corporation,,"Manhattan Beach, California",90266,Solar,Southern California-based stealth start-up company that intends to develop a project to beam solar power to Earth from satellites in space.,,,Manhattan Beach, California,,
0,Team Solar Inc,NA,NA,Team Solar Inc,Team Solar Inc,,"McClellan, California",95652,Solar,"Team Solar Inc (TSI) is a contracting company based in Sacramento, California that specialises in photovoltaic products and installation. The company was bought by SunEdison of Baltimore, Maryland in August 2006.",,,McClellan, California,,
0,Cnano Technology Ltd,NA,NA,Cnano Technology Ltd,Cnano Technology Ltd,,"Menlo Park, California",94025,"Carbon,Efficiency,Solar",US-based manufacturer of carbon nanotubes that may be embedded into solar cells to improve efficiency.,,,Menlo Park, California,,
0,Solar EnerTech Corporation,NA,NA,Solar EnerTech Corporation,Solar EnerTech Corporation,,"Menlo Park, California",CA 94025,Solar,"Solar cell manufacturer with manufacturing activities in Shanghai and a head office in Menlo Park, California.",,,Menlo Park, California,,
0,Unidym Inc,NA,NA,Unidym Inc,Unidym Inc,,"Menlo Park, California",94025,"Carbon,Solar","Majority-owned subsidiary of Arrowhead Research, developing carbon nanotube technology with possible applications as transparent electrodes for solar systems.",,,Menlo Park, California,,
0,Solar Power Partners Inc,NA,NA,Solar Power Partners Inc,Solar Power Partners Inc,,"Mill Valley, California",94941,Solar,Mill Valley-based independent power producer (IPP) focused on solar projects in the US,,,Mill Valley, California,,
0,Nanogram Corporation,NA,www.nanogram.com/ ,Nanogram Corporation,Nanogram Corporation,165 Topaz St,"Milpitas, California",95035,Solar,Develops nanotechnology solutions for solar and battery applications,http://www.nanogram.com/,Bay Area,Milpitas, California,,
0,"1st Light Energy, Inc.",209-824-5500,NA,"1st Light Energy, Inc.","1st Light Energy, Inc.",3224 McHennry Ave Suite F,"Modesto, California",953650,Solar,,http://1stlightenergy.com,Southern CA Area,Modesto, California,,
0,Sereno Solar,NA,NA,Sereno Solar,Sereno Solar,,"Monte Sereno, California",,Solar,"Has developed a solar passive water heating panel to be installed under current roofing or siding material, to avoid architectural disruption and also to lessen the need for air conditioning.",,,Monte Sereno, California,,
0,Ausra Inc,NA,www.ausra.com/ ,Ausra Inc,Ausra Inc,303 Ravendale Drive,"Mountain View, California",94043,Solar,CSP developer,http://www.ausra.com/,Bay Area,Mountain View, California,,
0,Honda Research Institute,NA,NA,Honda Research Institute,Honda Research Institute,,"Mountain View, California",,"Biofuels,Solar",California-based research institute of Honda. The institute conducts research into biofuels and solar technology.,,,Mountain View, California,,
0,Siluria Technologies,NA,NA,Siluria Technologies,Siluria Technologies,,"Mountain View, California",94043,Solar,California-based stealth-mode company engaged in development of biological nanotechnology-enabled products for clean energy products such as solar cells and light emitting devices.,,,Mountain View, California,,
0,SolFocus,650-623-7100,www.solfocus.com ,SolFocus,SolFocus,510 Logue Avenue,"Mountain View, California",94043,Solar,Concentrator Photovoltaic Energy Systems,http://www.solfocus.com,Bay Area,Mountain View, California,,
0,HelioPower Inc,NA,NA,HelioPower Inc,HelioPower Inc,,"Murrieta, California",92562,Solar,"Solar sales, installation and service company.",,,Murrieta, California,,
0,Real Goods Solar Murrieta,951-927-0782,www.realgoodssolar.com ,Real Goods Solar Murrieta,Real Goods Solar Murrieta,41690 Corporate Center Drive,"Murrieta, California",92562,Solar,,http://www.realgoodssolar.com,,Murrieta, California,,
0,Far West Rice,NA,NA,Far West Rice,Far West Rice,,"Nelson, California",95958,Solar,California-based family-owned rice mill. Owns a solar farm used mostly for the electricity needs of their factory.,,,Nelson, California,,
0,Unisun,NA,NA,Unisun,Unisun,,"Newbury Park, California",91320,Solar,"Unisun is a privately-held, development-stage company aiming to manufacture low-cost photovoltaic solar products using proprietary non-vacuum, nanoparticle technologies.",,,Newbury Park, California,,
0,Inland Energy Inc,NA,NA,Inland Energy Inc,Inland Energy Inc,,"Newport Beach, California",92660,"Services,Solar","Providing consultancy services to the planning permission of the 500MW natural gas-fired combined cycle, plus 50MW solar thermal, Victorville 2 power plant.",,,Newport Beach, California,,
0,International Solar Consulting,NA,NA,International Solar Consulting,International Solar Consulting,,"Newport Beach, California",92660,"Renewable Energy,Solar",International Solar Consulting works with large commercial and industrial customers to provide clean renewable solutions for their business.,,,Newport Beach, California,,
0,SolarCraft Services Inc,NA,NA,SolarCraft Services Inc,SolarCraft Services Inc,,"Novato, California",94949,Solar,Solar thermal and PV system installer.,,,Novato, California,,
0,BrightSource,NA,www.brightsourceenergy.com/ ,BrightSource,BrightSource,1999 Harrison Street,"Oakland, California",94612,Solar,CSP developer,http://www.brightsourceenergy.com/,Bay Area,Oakland, California,,
0,BrightSource Energy,NA,NA,BrightSource Energy,BrightSource Energy,,"Oakland, California",94612,Solar,"California-based company that develops, builds, owns, and operates large scale solar plants. These solar plants deliver solar energy to industrial and utility companies.",,,Oakland, California,,
0,Integrated Energy Systems,714-771-9098,NA,Integrated Energy Systems,Integrated Energy Systems,747 N Main Street,"Orange, California",92868,Solar,EPC,http://ie-systems.net/,Southern CA Area,Orange, California,,
0,Nationwide Solar Funding,NA,NA,Nationwide Solar Funding,Nationwide Solar Funding,,"Palm Desert, California",92211,Solar,Provides funding for small (residential and business) solar projects,,,Palm Desert, California,,
0,Nanosolar Inc,NA,NA,Nanosolar Inc,Nanosolar Inc,,"Palo Alto, California",94303-3313,Solar,Nanosolar develops polymer/plastic based photovoltaic products.,,,Palo Alto, California,,
0,Solar Storage Company,NA,NA,Solar Storage Company,Solar Storage Company,,"Palo Alto, California",94301,Solar,Distibuted On-Demand Solar,,Bay Area,Palo Alto, California,,
0,Aonex Technologies Inc,NA,NA,Aonex Technologies Inc,Aonex Technologies Inc,,"Pasadena, California",91106,Solar,Focused on commercialising a manufacturing method for semiconductor nanomaterials - specifically solar cells.,,,Pasadena, California,,
0,Canergy International,NA,NA,Canergy International,Canergy International,,"Pasadena, California",91101,Solar,California-based solar project developer.,,,Pasadena, California,,
0,Energy Innovations,NA,www.energyinnovations.com/ ,Energy Innovations,Energy Innovations,130 W. Union St,"Pasadena, California",91103,Solar,Small-scale concentrated PV,http://www.energyinnovations.com/,Southern CA Area,Pasadena, California,,
0,TiSol,NA,NA,TiSol,TiSol,,"Pasadena, California",,Solar,California-based start up focused on the production of dye sensitized solar cells.,,,Pasadena, California,,
0,Solar Depot Inc,NA,NA,Solar Depot Inc,Solar Depot Inc,,"Petaluma, California",94954,Solar,US-based PV and solar passive system integrator and distributor.,,,Petaluma, California,,
0,Meridian Energy USA,NA,NA,Meridian Energy USA,Meridian Energy USA,"6200 Stoneridge Mall Road, Suite 300","Pleasanton, California",94588,Solar,PV power developer,http://meridianenergyusa.com/,Bay Area,Pleasanton, California,,
0,Radiant Energy,NA,NA,Radiant Energy,Radiant Energy,,"Pleasanton, California",94566,"Geothermal energy,Hydro,Solar","Radiant is an independent energy producer which develops and owns solar, geothermal, and hydroelectric generating assets.",,,Pleasanton, California,,
0,Silicon Border Development LLC,NA,NA,Silicon Border Development LLC,Silicon Border Development LLC,,"Poway, California",92064,Solar,US-based developer of industrial parks with a focus on high-technology industry such as semiconductors and solar.,,,Poway, California,,
0,Aztec Solar,NA,NA,Aztec Solar,Aztec Solar,,"Rancho Cordova, California",95742,Solar,Installer of solar hot water and pool heating systems.,,,Rancho Cordova, California,,
0,AEE Solar,800-777-6609,www.aeesolar.com/ ,AEE Solar,AEE Solar,"1155 Redway Drive
PO Box 339","Redway, California",95560,Solar,,http://www.aeesolar.com/,Bay Area,Redway, California,,
0,California Solar Energy Industries Association,NA,NA,California Solar Energy Industries Association,California Solar Energy Industries Association,,"Rio Vista, California",94571,Solar,California Solar Energy Industries Association is a trade group representing the interests of California's solar industry.,,,Rio Vista, California,,
0,Terrafore,NA,NA,Terrafore,Terrafore,,"Riverside, California",92507,Solar,Iowa-based solar consulting and technology development company.,,,Riverside, California,,
0,Aerojet,NA,NA,Aerojet,Aerojet,,"Sacramento, California",95813,Solar,California-based defense and aerospace company. The firm is also an owner of solar PV system on facilities.,,,Sacramento, California,,
0,Anuvu Inc,NA,NA,Anuvu Inc,Anuvu Inc,,"Sacramento, California",95838,Solar,"Energy infrastructure supplier. Designs and manufactures fuel cell stacks, fuel cell engines and systems, and provides custom solutions. Has solar subsidiary.",,,Sacramento, California,,
0,Vanir Energy LLC,NA,NA,Vanir Energy LLC,Vanir Energy LLC,,"Sacramento, California",95834,Solar,Sacramento-based clean energy developer which offers solar heating and cooling systems as well as PV installation.,,,Sacramento, California,,
0,Advanced Solar Technologies Inc,NA,NA,Advanced Solar Technologies Inc,Advanced Solar Technologies Inc,,"San Diego, California",,Solar,California-based domestic and commercial designer and installer of solar energy equipment.,,,San Diego, California,,
0,Allied Sun Technologies,NA,www.alliedsun.com ,Allied Sun Technologies,Allied Sun Technologies,"6881 Alvarado Road, Suite 4","San Diego, California",92120,Solar,solar power systems,http://www.alliedsun.com,Southern CA Area,San Diego, California,,
0,Cenergy Power,NA,NA,Cenergy Power,Cenergy Power,,"San Diego, California",92009,Solar,Developer and installer of photovoltaic solar projects for commercial and agricultural applications.,,,San Diego, California,,
0,City of San Diego Environmental Services Department,NA,NA,City of San Diego Environmental Services Department,City of San Diego Environmental Services Department,,"San Diego, California",92123,"Services,Solar",City of San Diego's environmental services department. It is a power purchaser of electricity generated by a 0.9MW solar PV array located at its Alvarado water treatment plant.,,,San Diego, California,,
0,Envision Solar,NA,www.envisionsolar.com/ ,Envision Solar,Envision Solar,4225 Executive Square,"San Diego, California",92037,Solar,Developing designs for converting parking lots into PV systems,http://www.envisionsolar.com/,Southern CA Area,San Diego, California,,
0,Home Energy Systems Inc,NA,www.homeenergysystemsinc.com/ ,Home Energy Systems Inc,Home Energy Systems Inc,6996 Convoy Ct.,"San Diego, California",92111,Solar,Solar PV installer,http://www.homeenergysystemsinc.com/,Southern CA Area,San Diego, California,,
0,Innergy Power Corporation Inc,NA,NA,Innergy Power Corporation Inc,Innergy Power Corporation Inc,,"San Diego, California",92154,Solar,US manufacturer of rechargeable sealed-lead batteries and solar charger for off-grid use.,,,San Diego, California,,
0,National Lease Financing Services,NA,NA,National Lease Financing Services,National Lease Financing Services,,"San Diego, California",92122,"Solar,Wind energy","NLFS arrange tax oriented, tax exempt, capital and operationg lease and loans for commercial and municipal state energy projects. Mandate covers solar, cogeneration and wind projects.",,,San Diego, California,,
0,Pyron Solar,NA,www.pyronsolar.com/ ,Pyron Solar,Pyron Solar,10237 Flanders Court,"San Diego, California",92121,Solar,Developed a PV optics system that generates 90 kW peak energy with high-efficiency conversion,http://www.pyronsolar.com/,Southern CA Area,San Diego, California,,
0,SolASE,NA,www.solase.net/ ,SolASE,SolASE,P.O. Box 927122,"San Diego, California",92192,Solar,Commercializes solar cell technologies for use with portable consumer electronics and other equipment,http://www.solase.net/,Southern CA Area,San Diego, California,,
0,Sun Solar,NA,NA,Sun Solar,Sun Solar,,"San Diego, California",92019,"Services,Solar",,,,San Diego, California,,
0,Sunlight Direct,NA,www.sunlight-direct.com/ ,Sunlight Direct,Sunlight Direct,,"San Diego, California",92128,Solar,Developed a system that tracks and concentrates solar energy for distributed power generation,http://www.sunlight-direct.com/,Southern CA Area,San Diego, California,,
0,Armageddon Energy Inc,NA,NA,Armageddon Energy Inc,Armageddon Energy Inc,,"San Francisco, California",,Solar,California-based maker of SolarClover brand PV modules.,,,San Francisco, California,,
0,Chevron Energy Solutions,NA,www.chevronenergy.com/ ,Chevron Energy Solutions,Chevron Energy Solutions,"345 California Street, 18th Floor","San Francisco, California",94111,Solar,,http://www.chevronenergy.com/,Bay Area,San Francisco, California,,
0,Clean Power Finance,NA,NA,Clean Power Finance,Clean Power Finance,,"San Francisco, California",94103-4004,"Services,Solar",A San Francisco-based consultancy that provides turnkey services to business and retail consumers who want to go solar and need to select an installer and a financier.,,,San Francisco, California,,
0,Cleantech America Inc,NA,NA,Cleantech America Inc,Cleantech America Inc,,"San Francisco, California",94114,Solar,US-based solar project developer.,,,San Francisco, California,,
0,Declination Solar,NA,NA,Declination Solar,Declination Solar,,"San Francisco, California",,Solar,San Francisco solar installation firm acquired by SolarCity in September 2006.,,,San Francisco, California,,
0,Energy Recommerce Inc,NA,NA,Energy Recommerce Inc,Energy Recommerce Inc,,"San Francisco, California",94123,Solar,US-based manufacturer of internet-based remote solar monitoring system.,,,San Francisco, California,,
0,GreenVolts,NA," http://www.nrel.gov/technologytransfer/news/2009/677.html
",GreenVolts,GreenVolts,50 First Street,"San Francisco, California",94105,Solar,PV developer,http://www.greenvolts.com/,Bay Area,San Francisco, California,,
0,Recurrent Energy,NA,www.recurrentenergy.com/ ,Recurrent Energy,Recurrent Energy,1700 Montgomery Street,"San Francisco, California",94111,Solar,"Finance, construct, own and operate solar generating systems",http://www.recurrentenergy.com/,Bay Area,San Francisco, California,,
0,Scaled Solar,NA,NA,Scaled Solar,Scaled Solar,,"San Francisco, California",,Solar,"Scaled Solar manufacturers and markets utility-grade, concentrated photovoltaic solar energy systems to commercial customers",,,San Francisco, California,,
0,SunRun Inc,NA,www.sunrunhome.com/ ,SunRun Inc,SunRun Inc,717 Market Street,"San Francisco, California",94103,Solar,Solar installer,http://www.sunrunhome.com/,Bay Area,San Francisco, California,,
0,Sunworks Solar LLC,NA,NA,Sunworks Solar LLC,Sunworks Solar LLC,,"San Francisco, California",94104,Solar,San Francisco-based developer of US-based manufacturing plants to enable utility-scale solar generation,,,San Francisco, California,,
0,The Vote Solar Initiative,NA,NA,The Vote Solar Initiative,The Vote Solar Initiative,,"San Francisco, California",94107,Solar,The Vote Solar Initiative is a non-profit organization with the mission of stopping global warming and increasing energy independence by bringing solar energy into the mainstream.,,,San Francisco, California,,
0,URS Corporation,NA,NA,URS Corporation,URS Corporation,,"San Francisco, California",94111-2728,Solar,Engineering and design contractor involved in building biodiesel plants and solar farms.,,,San Francisco, California,,
0,Chromasun,NA,NA,Chromasun,Chromasun,,"San Jose, California",,Solar,California rooftop linear Fresnel optic-based solar thermal air conditioning systems maker.,,,San Jose, California,,
0,Micrel Inc,NA,NA,Micrel Inc,Micrel Inc,,"San Jose, California",95131,Solar,"Manufacturer of integrated circuits, and has also contracted to manufacture silicon solar cells for concentrator PV systems from an undisclosed third party.",,,San Jose, California,,
0,Nanosolar,NA,www.nanosolar.com/ ,Nanosolar,Nanosolar,5521 Hellyer Avenue,"San Jose, California",95138,Solar,Thin-film solar panel producer,http://www.nanosolar.com/,Bay Area,San Jose, California,,
0,SJ Solar,NA,NA,SJ Solar,SJ Solar,,"San Jose, California",95131,Solar,Cell design firm for concentrated solar,,,San Jose, California,,
0,SVTC Technologies,NA,www.svtc.com/ ,SVTC Technologies,SVTC Technologies,3901 North First Street,"San Jose, California",95134,Solar,Provides emiconductor process tools for new silicon developers,http://www.svtc.com/,Bay Area,San Jose, California,,
0,SVTC Technologies,NA,www.svtc.com/ ,SVTC Technologies,SVTC Technologies,3901 North First Street,"San Jose, California",95134,Solar,Provides emiconductor process tools for new silicon developers,http://www.svtc.com/,Bay Area,San Jose, California,,
0,Solar Junction,NA,NA,Solar Junction,Solar Junction,,"San Jose, California",CA 95131,"Efficiency,Solar",Solar Junction is developing high efficiency solar cells for use in concentrating PV applications.,,,San Jose, California,,
0,Solexant,NA,www.solexant.com/ ,Solexant,Solexant,2385 Bering Dr,"San Jose, California",95131,Solar,Nanostructured solar cell producer,http://www.solexant.com/,Bay Area,San Jose, California,,
0,SunPower Corp,NA,NA,SunPower Corp,SunPower Corp,,"San Jose, California",95134,Solar,"Leading manufacturer of monocrystalline silicon cells, modules, system trackers, and equipment to monitor the performance of solar systems. Has one of the highest efficiencies in the industry, and considerable downstream operations.",,,San Jose, California,,
0,SunPower Corporation,NA,NA,SunPower Corporation,SunPower Corporation,3939 N. 1st Street,"San Jose, California",95134,Solar,Solar developer,http://us.sunpowercorp.com/?re=1,Bay Area,San Jose, California,,
0,Sunny Hill Energy,NA,NA,Sunny Hill Energy,Sunny Hill Energy,,"San Jose, California",95113,Solar,California-based solar financing and business support company that bridges residential and commercial customers with established local solar installers.,,,San Jose, California,,
0,Sunpods Inc,NA,NA,Sunpods Inc,Sunpods Inc,,"San Jose, California",95126,Solar,San Jose-based manufacturer and installer of photovoltaic solar smart technology systems.,,,San Jose, California,,
0,Tioga Energy,NA,www.tiogaenergy.com/ ,Tioga Energy,Tioga Energy,2755 Campus Drive,"San Mateo, California",94403,Solar,Commerical and government solar installations,http://www.tiogaenergy.com/,Bay Area,San Mateo, California,,
0,Marin Solar,NA,NA,Marin Solar,Marin Solar,,"San Rafael, California",94901,Solar,Marin Solar is a residential installer of photovoltaic systems.,,,San Rafael, California,,
0,Real Goods Solar San Rafael,415-456-2800,www.realgoodssolar.com ,Real Goods Solar San Rafael,Real Goods Solar San Rafael,27 Simms Street,"San Rafael, California",94901,Solar,,http://www.realgoodssolar.com,,San Rafael, California,,
0,Clairvoyant Energy,NA,NA,Clairvoyant Energy,Clairvoyant Energy,,"Santa Barbara, California",,"Services,Solar","Clairvoyant Energy builds, owns and operates solar photovoltaic systems. It provides engineering, design, installation and finance services.",,,Santa Barbara, California,,
0,Applied Materials,NA,www.appliedmaterials.com/ ,Applied Materials,Applied Materials,3050 Bowers Avenue,"Santa Clara, California",95054,Solar,,http://www.appliedmaterials.com/,,Santa Clara, California,,
0,Coherent Inc,NA,NA,Coherent Inc,Coherent Inc,,"Santa Clara, California",95054,Solar,"US-based manufacturer of photonics-based equipments such as lasers and precision optics; in the solar industry, it provides edge isolation and lasers to structure amorphous silicon thin-film cells.",,,Santa Clara, California,,
0,DayStar Technologies,408-582-7100,www.daystartech.com/ ,DayStar Technologies,DayStar Technologies,2972 Stender Way,"Santa Clara, California",95054,Solar,"Manufacturer of low-cost, high performance, CIGS thin film photovoltaic products",http://www.daystartech.com/,Bay Area,Santa Clara, California,,
0,Miasole,NA," http://www.nrel.gov/research_review/pdfs/2006/40764_4.pdf
",Miasole,Miasole,2590 Walsh Ave,"Santa Clara, California",95051,Solar,Thin-film solar producer,http://www.miasole.com/www/,Bay Area,Santa Clara, California,,
0,Miasole Inc,NA,NA,Miasole Inc,Miasole Inc,,"Santa Clara, California",95051,Solar,California-based manufacturer of CIGS thin-film solar cells.,,,Santa Clara, California,,
0,Solaicx,NA,www.solaicx.com/ ,Solaicx,Solaicx,5102 Calle Del Sol,"Santa Clara, California",95054,Solar,"Manufactures high-performance, single crystal silicon ingots at high volume",http://www.solaicx.com/,Bay Area,Santa Clara, California,,
0,Solaicx,NA,www.solaicx.com/ ,Solaicx,Solaicx,5102 Calle Del Sol,"Santa Clara, California",95054,Solar,"Manufactures high-performance, single crystal silicon ingots at high volume",http://www.solaicx.com/,Bay Area,Santa Clara, California,,
0,Solar Magic,NA,www.solarmagic.com/home ,Solar Magic,Solar Magic,3350 Thomas Rd.,"Santa Clara, California",95054,Solar,solar magic power optimizer,http://www.solarmagic.com/home,Bay Area,Santa Clara, California,,
0,Real Goods Solar Santa Cruz,831-477-0943,www.realgoodssolar.com/ ,Real Goods Solar Santa Cruz,Real Goods Solar Santa Cruz,"1115 Thompson Avenue, #1","Santa Cruz, California",95062,Solar,,http://www.realgoodssolar.com/,,Santa Cruz, California,,
0,"Pure Power Distribution, Inc.",310.569.9151,www.PurePowerD.com/ ,"Pure Power Distribution, Inc.","Pure Power Distribution, Inc.","2719 Wilshire Blvd., Suite 200","Santa Monica, California",90403,Solar,Mobile Solar Power Systems,http://www.PurePowerD.com/,Southern CA Area,Santa Monica, California,,
0,Alternative Energy Inc,NA,NA,Alternative Energy Inc,Alternative Energy Inc,,"Santa Rosa, California",95407,Solar,Focussed on design and installation of solar PV systems.,,,Santa Rosa, California,,
0,Tetra Sun,NA,NA,Tetra Sun,Tetra Sun,,"Saratoga, California",,Solar,California-based stealth mode solar startup focusing on development of back surface passivisation for lower cost PV cell.,,,Saratoga, California,,
0,AMSOLAR,NA,www.amsolarcorp.com/ ,AMSOLAR,AMSOLAR,"415 S. Cedros Avenue, Suite 200","Solana Beach, California",92075,Solar,"US-based engineering contractor provides all of the engineering, installation, operation and maintenance of the solar energy facility.",http://www.amsolarcorp.com/,,Solana Beach, California,,
0,Vaillant Solar Systems,NA,NA,Vaillant Solar Systems,Vaillant Solar Systems,,"Solana Beach, California",92075,Solar,"California-based solar company specializing in solar water heating, solar pool heating and solar space heating systems for residential and commercial applications",,,Solana Beach, California,,
0,MRL Industries Inc,NA,NA,MRL Industries Inc,MRL Industries Inc,,"Sonora, California",95370,Solar,MRL Industries is a US company committed to developing heating technology. They are a supplier for crystalline silicon solar cell production.,,,Sonora, California,,
0,REC Solar,NA,www.recsolar.com/cm/Home.html ,REC Solar,REC Solar,167 Commercial Street,"Sunnyvale, California",94086,Solar,Solar installer,http://www.recsolar.com/cm/Home.html,Bay Area,Sunnyvale, California,,
0,REC Solar,NA,NA,REC Solar,REC Solar,167 Commercial Street,"Sunnyvale, California",94086,Solar,Solar installer,http://www.recsolar.com/cm/Home.html,Bay Area,Sunnyvale, California,,
0,REC Solar,NA,NA,REC Solar,REC Solar,167 Commercial Street,"Sunnyvale, California",94086,Solar,Solar installer,http://www.recsolar.com/cm/Home.html,Bay Area,Sunnyvale, California,,
0,4th Day Energy,877-484-3291,www.4thdayenergy.com ,4th Day Energy,4th Day Energy,38886 River Belle,"Tollhouse, California",93667,Solar,Solar electric systems,http://www.4thdayenergy.com,Southern CA Area,Tollhouse, California,,
0,"ABC Solar, Inc.",NA,www.abcsolar.com/ ,"ABC Solar, Inc.","ABC Solar, Inc.",24454 Hawthorne Blvd,"Torrance, California",90505,Solar,"Solar power systems, products",http://www.abcsolar.com/,Southern CA Area,Torrance, California,,
0,"Pioneer Materials, Inc.",714-721-5332,www.pioneer-materials.com/ ,"Pioneer Materials, Inc.","Pioneer Materials, Inc.",3357 Candlewood Road,"Torrance, California",90505,Solar,sputtering targets,http://www.pioneer-materials.com/,Southern CA Area,Torrance, California,,
0,L Garde Inc,NA,NA,L Garde Inc,L Garde Inc,,"Tustin, California",92780 6487,Solar,"Designs and manufactures inflatable space structural systems including antennae, relectors and solar arrays. Working on solar sail propulsion systems with NASA.",,,Tustin, California,,
0,Real Goods Solar Ukiah,707-468-9300,www.realgoodssolar.com ,Real Goods Solar Ukiah,Real Goods Solar Ukiah,301 L Kunzler Ranch Rd,"Ukiah, California",95482,Solar,,http://www.realgoodssolar.com,,Ukiah, California,,
0,West Pico Food,NA,NA,West Pico Food,West Pico Food,,"Vernon, California",,Solar,"A distributor of wholesale frozen foods to supermarket chains in Southern California, which has had a solar installation built on its roof.",,,Vernon, California,,
0,Independent Energy Solutions,NA,www.indenergysolutions.com/ ,Independent Energy Solutions,Independent Energy Solutions,1090 Joshua Way,"Vista, California",92081,Solar,"Renewable energy development, engineering and construction firm",http://www.indenergysolutions.com/,Southern CA Area,Vista, California,,
0,InterPhases Research,NA,NA,InterPhases Research,InterPhases Research,,"Westlake Village, California",91361,Solar,US-based developer of copper indium selenide solar cells.,,,Westlake Village, California,,
0,Solar Electrical Vehicles,NA,NA,Solar Electrical Vehicles,Solar Electrical Vehicles,,"Westlake Village, California",91361,"Solar,Vehicles",US-based manufacturer of solar battery chargers for hybrid vehicles.,,,Westlake Village, California,,
0,Perpetual Energy Systems,NA,NA,Perpetual Energy Systems,Perpetual Energy Systems,,"Woodland Hills, California",91367,"Renewable Energy,Solar",,,,Woodland Hills, California,,
0,Primestar Solar,NA,www.primestarsolar.com/ ,Primestar Solar,Primestar Solar,"14401 West 65th Way, Unit B","Arvada, Colorado",80004,Solar,Thin-Film PV,http://www.primestarsolar.com/,Rockies Area,Arvada, Colorado,,
0,"ReflecTech, Inc",NA,www.reflectechsolar.com/ ,"ReflecTech, Inc","ReflecTech, Inc",18200 West Highway 72,"Arvada, Colorado",80007,Solar,"Highly reflective, glass-free, polymer-based film for concentrating sunlight in solar energy arrays",http://www.reflectechsolar.com/,Rockies Area,Arvada, Colorado,,
0,SkyFuel,303.330.0276,www.skyfuel.com ,SkyFuel,SkyFuel,18300 West Highway 72,"Arvada, Colorado",80007,Solar,Parabolic Trough Solar Collector,http://www.skyfuel.com,Rockies Area,Arvada, Colorado,,
0,SkyFuel Inc,NA," http://www.nrel.gov/news/press/2009/704.html
",SkyFuel Inc,SkyFuel Inc,18300 W Highway 72,"Arvada, Colorado",80007,Solar,Solar thermal power,http://www.skyfuel.com/,Rockies Area,Arvada, Colorado,,
0,Aspen Solar,NA,www.aspensolar.com/ ,Aspen Solar,Aspen Solar,P.O. Box 2391,"Aspen, Colorado",80612,Solar,"Design, installation & maintenance of active, passive, and photovoltaic energy systems",http://www.aspensolar.com/,Rockies Area,Aspen, Colorado,,
0,"Cool Energy, Inc.",NA,www.coolenergyinc.com ,"Cool Energy, Inc.","Cool Energy, Inc.",5541 Central Avenue,"Boulder, Colorado",80301,Solar,SolarFlow System,http://www.coolenergyinc.com,Rockies Area,Boulder, Colorado,,
0,EyeOn Solar,NA,NA,EyeOn Solar,EyeOn Solar,,"Boulder, Colorado",80304,"Renewable Energy,Solar","EyeOn Solar develops, owns and operates renewable energy assets in the state of Colorado.",,,Boulder, Colorado,,
0,Gaiam Real Goods,NA,www.gaiam.com/realgoods/ ,Gaiam Real Goods,Gaiam Real Goods,833 W So. Boulder Rd,"Boulder, Colorado",80307,Solar,"PV panel, efficient lighting distributor",http://www.gaiam.com/realgoods/,Rockies Area,Boulder, Colorado,,
0,Lighthouse Solar,303-638-4562,www.lighthousesolar.com/ ,Lighthouse Solar,Lighthouse Solar,3550 Frontier,"Boulder, Colorado",80301,Solar,Solar Panel Installers,http://www.lighthousesolar.com/,Rockies Area,Boulder, Colorado,,
0,Lighthouse Solar,NA,www.lighthousesolar.com/ ,Lighthouse Solar,Lighthouse Solar,3550 Frontier,"Boulder, Colorado",80301,Solar,Solar Panel Installers,http://www.lighthousesolar.com/,Rockies Area,Boulder, Colorado,,
0,Lumos Solar,NA,NA,Lumos Solar,Lumos Solar,,"Boulder, Colorado",80301,Solar,A supplier of solar passive water heating systems and small PV systems.,,,Boulder, Colorado,,
0,Solar Alliance,NA,NA,Solar Alliance,Solar Alliance,,"Boulder, Colorado",80301,Solar,"A state-focussed organisation of manufacturers, integrators, and systems installers advocating for solar power in the US.",,,Boulder, Colorado,,
0,Power House Solar and Wind,NA,www.powerhousesolar.net/ ,Power House Solar and Wind,Power House Solar and Wind,1504 Woodlawn Ave,"Canon City, Colorado",81212,Solar,"Design, consulting, product and system sales, and complete installation services",http://www.powerhousesolar.net/,Rockies Area,Canon City, Colorado,,
0,Grounded Renewable Energy,NA,NA,Grounded Renewable Energy,Grounded Renewable Energy,,"Carbondale, Colorado",81623,"Renewable Energy,Solar",Grounded Renewable Energy designs turn-key solar systems for homes and businesses in Colorado.,,,Carbondale, Colorado,,
0,InPower Systems,NA,NA,InPower Systems,InPower Systems,,"Carbondale, Colorado",81623,"Geothermal energy,Solar","InPower Systems designs, installs and maintains turn-key solar, solar thermal, geothermal and energy smart systems in homes and businesses in Colorado.",,,Carbondale, Colorado,,
0,Capitol Solar Energy LLC,NA,NA,Capitol Solar Energy LLC,Capitol Solar Energy LLC,8243 N. Pinewood Drive,"Castle Rock, Colorado",80108,Solar,"PV system design, installation and maintenance",http://capitolsolarenergy.com/,Rockies Area,Castle Rock, Colorado,,
0,Quality Electric & Controls Inc.,970-434-7600,www.qecinc.net ,Quality Electric & Controls Inc.,Quality Electric & Controls Inc.,604 32 1/2 Rd.,"Clifton, Colorado",81520,"Renewable Energy,Solar,Wind energy",,http://www.qecinc.net,Rockies Area,Clifton, Colorado,,
0,American Solar Technology,NA,NA,American Solar Technology,American Solar Technology,5265 Turquoise Drive,"Colorado Springs, Colorado",80918,Solar,Solar installer,,Rockies Area,Colorado Springs, Colorado,,
0,Diamond Wire Technology LLC,NA,NA,Diamond Wire Technology LLC,Diamond Wire Technology LLC,,"Colorado Springs, Colorado",80916,Solar,"US-based manufacturer of diamond wire and wiresaws, used in solar wafer manufacturing.",,,Colorado Springs, Colorado,,
0,ANV Partners,NA,NA,ANV Partners,ANV Partners,,"Denver, Colorado",80202,"Hydro,Hydrogen,Services,Solar,Wind energy",,,,Denver, Colorado,,
0,Adobe Solar,303-339-0308,www.adobesolar.com ,Adobe Solar,Adobe Solar,,"Denver, Colorado",,Solar,solar electric systems,http://www.adobesolar.com,Rockies Area,Denver, Colorado,,
0,BrightPhase Energy,NA,www.brightphaseenergy.com/ ,BrightPhase Energy,BrightPhase Energy,8035 East 40th Avenue,"Denver, Colorado",80207,Solar,Combination PV and day-lighting modules for commerical buildings,http://www.brightphaseenergy.com/,Rockies Area,Denver, Colorado,,
0,"Conergy, Inc.",1-888-396-6611,www.conergy.us/desktopdefault. ,"Conergy, Inc.","Conergy, Inc.","2480 West 26th Avenue, Suite 2-B","Denver, Colorado",80211,Solar,Renewable energy products and services,http://www.conergy.us/desktopdefault.aspx,Rockies Area,Denver, Colorado,,
0,Continuum Partners,NA,NA,Continuum Partners,Continuum Partners,,"Denver, Colorado",80202,Solar,"A Denver based real estate development company, also involved in Solar PV projects.",,,Denver, Colorado,,
0,Denver Solar and Wind,303-507-2874,www.Denversolarandwind.com ,Denver Solar and Wind,Denver Solar and Wind,"12445 E. 39th Ave, Suite 310
Denver, Colorado 80239","Denver, Colorado",,"Efficiency,Renewable energy,Services,Solar,Wind energy",Solar array and wind turbine purchasing and installation.,http://www.Denversolarandwind.com,Front Range Area,Denver, Colorado,,
0,ImaginIt,NA,NA,ImaginIt,ImaginIt,,"Denver, Colorado",CO 80202,Solar,"Provider of building-integrated solar PV systems, which can include monitoring systems.",,,Denver, Colorado,,
0,Johns Manville,NA,NA,Johns Manville,Johns Manville,,"Denver, Colorado",80217-5108,Solar,"Colorado-based maker of insulation, mechanical insulation, commercial roofing, and roof insulation. The company has a subsidiary producing solar roofing and BIPV products.",,,Denver, Colorado,,
0,Real Goods Solar Denver,303-222-8950,www.realgoodssolar.com ,Real Goods Solar Denver,Real Goods Solar Denver,"7003 E. 47th Ave Dr, Unit 700","Denver, Colorado",80218,Solar,,http://www.realgoodssolar.com,,Denver, Colorado,,
0,Vibrant Solar Inc,303-604-6696,[www.vibrantsolar.com ] ,Vibrant Solar Inc,Vibrant Solar Inc,4321 Broadway,"Denver, Colorado",80216,Solar,Residential and Commercial PV,http://www.vibrantsolar.com,Rockies Area,Denver, Colorado,,
0,AC Solar Inc,NA,www.acsolar.com/ ,AC Solar Inc,AC Solar Inc,P.O. Box 128,"Florence, Colorado",81226,Solar,Solar and wind sales for residential,http://www.acsolar.com/,Rockies Area,Florence, Colorado,,
0,Advanced Energy,NA,www.advanced-energy.com/ ,Advanced Energy,Advanced Energy,1625 Sharp Point Drive,"Fort Collins, Colorado",80525,Solar,"Solar cell, passive-solar architectural glass, solar grid-tie inverter, semiconductor, flat panel display, data storage",http://www.advanced-energy.com/,Rockies Area,Fort Collins, Colorado,,
0,Advanced Energy Industries Inc,NA,NA,Advanced Energy Industries Inc,Advanced Energy Industries Inc,,"Fort Collins, Colorado",80525,Solar,US-based manufacturer of power conversion and control systems for the semiconductor and solar industries. The company also manufactures PV inverters and accessories.,,,Fort Collins, Colorado,,
0,Ampulse Corporation,NA,www.ampulse.com/ ,Ampulse Corporation,Ampulse Corporation,1767-A Denver West Boulevard,"Golden, Colorado",80401,Solar,Thin-Film PV,http://www.ampulse.com/,Rockies Area,Golden, Colorado,,
0,Energistic Systems,NA,www.energisticsystems.us/ ,Energistic Systems,Energistic Systems,13551 W. 43rd Street Dr,"Golden, Colorado",80403,Solar,Solar PV and solar thermal systems,http://www.energisticsystems.us/,Rockies Area,Golden, Colorado,,
0,"Energy Solutions Partners, LLC",435-632-1880,NA,"Energy Solutions Partners, LLC","Energy Solutions Partners, LLC",1915 denver west crt apt 1833,"Golden, Colorado",80401,Solar,Consulting - distributed energy,,Rockies Area,Golden, Colorado,,
0,MVSystems Inc,NA,www.mvsystemsinc.com/ ,MVSystems Inc,MVSystems Inc,500 Corporate Circle Suite L,"Golden, Colorado",80401,Solar,Tools for solar panel production,http://www.mvsystemsinc.com/,Rockies Area,Golden, Colorado,,
0,Millennium Energy LLC,(303) 526-2972,www.millennium-energy.net ,Millennium Energy LLC,Millennium Energy LLC,PO Box 16073,"Golden, Colorado",80402,Solar,Solar Consulting Services,http://www.millennium-energy.net,Rockies Area,Golden, Colorado,,
0,Novan Solar Inc,NA,www.novan-solar.com/ ,Novan Solar Inc,Novan Solar Inc,4420 McIntyre Street,"Golden, Colorado",80403,Solar,Manufatures solar PV systems and solar thermal systems,http://www.novan-solar.com/,Rockies Area,Golden, Colorado,,
0,Sundance Power LLC,NA,NA,Sundance Power LLC,Sundance Power LLC,,"Golden, Colorado",80401,Solar,Sundance provides turnkey solar PV installations.,,,Golden, Colorado,,
0,Tri Power Systems Inc,NA,www.tripowersystems.com/ ,Tri Power Systems Inc,Tri Power Systems Inc,P.O. Box 1450,"Idaho Springs, Colorado",80452,Solar,Design and installation of solar and wind systems for residential and small business,http://www.tripowersystems.com/,Rockies Area,Idaho Springs, Colorado,,
0,Abengoa Solar,NA," http://www.nrel.gov/csp/news/2009/674.html
",Abengoa Solar,Abengoa Solar,11500 W 13th Ave,"Lakewood, Colorado",80215,Solar,Solar developer,http://www.abengoasolar.com/,Rockies Area,Lakewood, Colorado,,
0,Iron Edison Battery Company,202-681-4766,NA,Iron Edison Battery Company,Iron Edison Battery Company,,"Lakewood, Colorado",,"Bioenergy,Carbon,Efficiency,Hydro,Renewable Energy,Solar,Wind energy",Nickel Iron (Ni-Fe) battery systems,http://ironedison.com,Rockies Area,Lakewood, Colorado,,
0,Simply Efficient,NA,www.simplyeff.com/ ,Simply Efficient,Simply Efficient,7717 W. 6th Ave,"Lakewood, Colorado",80214,Solar,Solar and wind consulting and installations,http://www.simplyeff.com/,Rockies Area,Lakewood, Colorado,,
0,Ascent Solar Technologies Inc,NA,NA,Ascent Solar Technologies Inc,Ascent Solar Technologies Inc,,"Littleton, Colorado",80127-4107,Solar,Ascent Solar develops and plans to manufacture CIGS thin-film solar cells and modules for the satellite and high-altitude airship (â€œHAAâ€?) markets.,,,Littleton, Colorado,,
0,MicroSat Systems Inc,NA,NA,MicroSat Systems Inc,MicroSat Systems Inc,,"Littleton, Colorado",80127-4107,Solar,"US-based micro satellite developer, MicroSat Systems Inc, produces satellites for military and commercial applications. It integrates and develops small solar arrays on its satellites.",,,Littleton, Colorado,,
0,PV Solar Planet,NA,www.pvsolarplanet.com/ ,PV Solar Planet,PV Solar Planet,5856 S. Garland Way,"Littleton, Colorado",80123,Solar,Sales of solar laminate,http://www.pvsolarplanet.com/,Rockies Area,Littleton, Colorado,,
0,Applied Films Corporation,NA,NA,Applied Films Corporation,Applied Films Corporation,,"Longmont, Colorado",80504,"Services,Solar","Provider of thin film deposition equipment and services, particularly to the solar industry.",,,Longmont, Colorado,,
0,Abound Solar,NA," http://www.nrel.gov/docs/fy11osti/48353.pdf
",Abound Solar,Abound Solar,"2695 Rocky Mountain Avenue, Suite 100","Loveland, Colorado",80538,Solar,Thin-film cadmium telluride solar modules,http://www.abound.com,Rockies Area,Loveland, Colorado,,
0,Colorado Solar Inc,NA,www.cosolar.com/ ,Colorado Solar Inc,Colorado Solar Inc,38150 River Frontage Rd,"New Castle, Colorado",81647,Solar,"Sells parts and packages for on and off-grid applications, also installs",http://www.cosolar.com/,Rockies Area,New Castle, Colorado,,
0,Sun Dog Energy,NA,www.sundogenergy.com/ ,Sun Dog Energy,Sun Dog Energy,P.O. Box 565,"Poncha Springs, Colorado",81242,Solar,"Design, sell, furnish, and install PV systems and wind-turbine electric systems",http://www.sundogenergy.com/,Rockies Area,Poncha Springs, Colorado,,
0,Alternative Power Enterprises,NA,www.alternative-power.com/ ,Alternative Power Enterprises,Alternative Power Enterprises,P.O. Box 351,"Ridgway, Colorado",81432,Solar,Design cost effective power solutions for on- and off-grid locations,http://www.alternative-power.com/,Rockies Area,Ridgway, Colorado,,
0,Ascent Solar,NA," http://www.pv-tech.org/news/does_nrel_selects_ascent_solar_for_project_award
",Ascent Solar,Ascent Solar,12300 Grant Street,"Thornton, Colorado",80241,Solar,Thin-Film PV,http://www.ascentsolar.com/,Rockies Area,Thornton, Colorado,,
0,Techsolas LLC,NA,www.techsolas.com/ ,Techsolas LLC,Techsolas LLC,10955 Westmoor Drive,"Westminster, Colorado",80021,Solar,"Project developer targeting businesses, government agencies for implementation of power stations",http://www.techsolas.com/,Rockies Area,Westminster, Colorado,,
0,Inica Inc,NA,NA,Inica Inc,Inica Inc,,"Wheat Ridge, Colorado",,Solar,Holding company for incubator ITN Energy Systems and various companies which it has spun out in the fields of batteries and solar films.,,,Wheat Ridge, Colorado,,
0,Wheat Ridge Solar,NA,www.wheatridgesolar.com/ ,Wheat Ridge Solar,Wheat Ridge Solar,4550 Teller St,"Wheat Ridge, Colorado",80033,Solar,Design and installation of solar systems for residential and small business,http://www.wheatridgesolar.com/,Rockies Area,Wheat Ridge, Colorado,,
0,Apollo Solar Energy Inc,NA,NA,Apollo Solar Energy Inc,Apollo Solar Energy Inc,,"Bethel, Connecticut",68010,Solar,,,,Bethel, Connecticut,,
0,Sunsearch Inc,NA,NA,Sunsearch Inc,Sunsearch Inc,,"Guilford, Connecticut",6437,"Services,Solar","The company designs, installs, and services all types of solar energy systems.",,,Guilford, Connecticut,,
0,Lite Trough LLC,NA,NA,Lite Trough LLC,Lite Trough LLC,,"Milford, Connecticut",6460,Solar,Developing a parabolic trough system for Solar Thermal Electricity Generation (STEG).,,,Milford, Connecticut,,
0,Sunlight Solar Energy,NA,www.sunlightsolar.com/ ,Sunlight Solar Energy,Sunlight Solar Energy,4 Oxford Road,"Milford, Connecticut",6460,Solar,"Distributes solar inverters, SunPower panels, roof installation, and ground mounts",http://www.sunlightsolar.com/,Northeast - NY NJ CT PA Area,Milford, Connecticut,,
0,Alteris Renewables,NA,www.alterisinc.com/index.php ,Alteris Renewables,Alteris Renewables,523 Danbury Rd,"Wilton, Connecticut",6897,Solar,Renewable energy systems integrator,http://www.alterisinc.com/index.php,Northeast - NY NJ CT PA Area,Wilton, Connecticut,,
0,University of Delaware,NA,NA,University of Delaware,University of Delaware,,"Newark, Delaware",,Solar,University with a research department leading a solar cell development consortium.,,,Newark, Delaware,,
0,Sol Inc.,NA,www.solarlightingusa.com/ ,Sol Inc.,Sol Inc.,"3210 S.W. 42nd Avenue

3210 S.W. 42nd Avenue","Palm City, FL",34990,Solar,,http://www.solarlightingusa.com/,,Palm City, FL,,
0,American Solar Energy,904-268-8046,NA,American Solar Energy,American Solar Energy,"11497 Columbia Drive West, Suite 10","Jacksonville, Florida",32258,Solar,solar energy systems,http://americansolarenergy.com/,,Jacksonville, Florida,,
0,AllSolar Service Company Inc.,NA,www.allsolarflorida.com/ ,AllSolar Service Company Inc.,AllSolar Service Company Inc.,1507 Damon Ave.,"Kissimmee, Florida",34744,Solar,solar energy systems,http://www.allsolarflorida.com/,,Kissimmee, Florida,,
0,BlueChip Energy,NA,NA,BlueChip Energy,BlueChip Energy,,"Lake Mary, Florida",32746,Solar,Florida-based utility-scale solar project developer.,,,Lake Mary, Florida,,
0,Cetech America,407-322-5199,www.cetechamerica.com/ ,Cetech America,Cetech America,# 711 Silver Birch Place,"Longwood, Florida",32750,Solar,,http://www.cetechamerica.com/,,Longwood, Florida,,
0,Alternative Concepts and Technology,NA,www.alternativeconcepts.org/ ,Alternative Concepts and Technology,Alternative Concepts and Technology,,"Orlando, Florida",,Solar,"solar power, water catchments, organic gardening",http://www.alternativeconcepts.org/,,Orlando, Florida,,
0,Sol Inc,+1 (772) 286-9461,www.solarlightingusa.com ,Sol Inc,Sol Inc,3210 SW 42nd Ave,"Palm City, Florida",34990,Solar,Solar outdoor LED lighting,http://www.solarlightingusa.com,,Palm City, Florida,,
0,Atlas Solar Innovations,888-756-9505,NA,Atlas Solar Innovations,Atlas Solar Innovations,2640 NW 15th Court,"Pompano Beach, Florida",33069,Solar,Solar Photovoltaics,http://atlassolarinnovations.com/,,Pompano Beach, Florida,,
0,SolarPower Restoration Systems Inc,NA,NA,SolarPower Restoration Systems Inc,SolarPower Restoration Systems Inc,,"Seminole, Florida",33772,Solar,SolarPower Restoration Systems is pursuing Building Integrated Photovoltaics (BIPV) systems and large scale Photovoltaic Power (PV) Array Systems over concrete and other construction surfaces.,,,Seminole, Florida,,
0,Solar Energy Initiatives Inc,NA,NA,Solar Energy Initiatives Inc,Solar Energy Initiatives Inc,,"St. Johns, Florida",32082,Solar,US-based PV and solar thermal and PV project developer and installer.,,,St. Johns, Florida,,
0,SEPCO - Solar Electric Power Company,772-220-6615,www.sepco-solarlighting.com ,SEPCO - Solar Electric Power Company,SEPCO - Solar Electric Power Company,1521 SE Palm Court,"Stuart, Florida",34994,Solar,Commercial Solar Lighting & Off Grid Solar Power Systems,http://www.sepco-solarlighting.com,,Stuart, Florida,,
0,"All Solar Power, Inc.","27.952294256°, -82.4665546417° Show Map",www.allsolar.com/ ,"All Solar Power, Inc.","All Solar Power, Inc.",,"Tampa, Florida",,Solar,,http://www.allsolar.com/,,Tampa, Florida,,
0,Climatic Solar,772-567-3104,www.climaticsolar.com/ ,Climatic Solar,Climatic Solar,650 2nd Lane,"Vero Beach, Florida",32962,Solar,solar energy systems,http://www.climaticsolar.com/,,Vero Beach, Florida,,
0,Empower Energy Technology,4046813270,www.empoweret.com ,Empower Energy Technology,Empower Energy Technology,"245 N. Highland Avenue, Suite 230.162","Atlanta, Georgia",30307,Solar,,http://www.empoweret.com,,Atlanta, Georgia,,
0,Legacy Environmental Solutions,678-919-9236,www.legacyenvironmentalsolutio ,Legacy Environmental Solutions,Legacy Environmental Solutions,"9878 Main St
Suite 105","Woodstock, Georgia",30188,"Services,Solar",AET and eShield Therma  Reflective Insulation,http://www.legacyenvironmentalsolutions.com,,Woodstock, Georgia,,
0,Sopogy LLC,NA,NA,Sopogy LLC,Sopogy LLC,,"Honolulu, Hawaii",96819,Solar,Hawaii-based developer and manufacturer of parabolic trough STEG projects and equipment and maker of solar thermal process heat and solar air-conditioning systems.,,,Honolulu, Hawaii,,
0,Zero Emissions Leasing LLC,NA,NA,Zero Emissions Leasing LLC,Zero Emissions Leasing LLC,,"Honolulu, Hawaii",96822,Solar,Honolulu-based developer of solar power generation projects on a large-scale (more than 100 kilowatts),,,Honolulu, Hawaii,,
0,Keahole Solar Power,NA,NA,Keahole Solar Power,Keahole Solar Power,,"Kona, Hawaii",,Solar,Hawaii-based solar thermal project developer which has partnered with equipment provider Sopogy to build projects in the Hawaiian islands.,,,Kona, Hawaii,,
0,Lighthouse Solar Honolulu Hawaii,(808) 783-0357,www.lighthousesolar.com ,Lighthouse Solar Honolulu Hawaii,Lighthouse Solar Honolulu Hawaii,1040 Sand Island parkway Suite 100,"Honolulu, HI",96819,Solar,,http://www.lighthousesolar.com,,Honolulu, HI,,
0,Micron Technology Inc,NA,NA,Micron Technology Inc,Micron Technology Inc,,"Boise, Idaho",83707-0006,Solar,Solid state flash memory and CMOS maker exploring LED lighting production and rumoured to be mulling solar manufacturing.,,,Boise, Idaho,,
0,Sunergy World,NA,NA,Sunergy World,Sunergy World,,"Boise, Idaho",83707,"Solar,Wind energy",Idaho-based wind and solar project developer.,,,Boise, Idaho,,
0,Hackney Construction,208-983-3109,NA,Hackney Construction,Hackney Construction,309 Farrens Creek Lane/PO Box 13,"Grangeville, Idaho",83530,Solar,"Green Building, renewable energy",http://DigitalProductsAndRenewableEnergy.com/,Rockies Area,Grangeville, Idaho,,
0,EPIR Technologies,NA,NA,EPIR Technologies,EPIR Technologies,,"Bolingbrook, Illinois",6044,Solar,"EPIR develops a line of products targeted toward the infrared sensor, biosensor and solar photovoltaic industries.",,,Bolingbrook, Illinois,,
0,Lincoln Renewable Energy LLC,NA,NA,Lincoln Renewable Energy LLC,Lincoln Renewable Energy LLC,,"Chicago, Illinois",60606,"Solar,Wind energy",Chicago-based company developing solar and wind power projects from greenfield concept through to commercial operation.,,,Chicago, Illinois,,
0,"Lucas Group Executive Search, Renewable Energy",NA,NA,"Lucas Group Executive Search, Renewable Energy","Lucas Group Executive Search, Renewable Energy",230 West Monroe,"Chicago, Illinois",60606,"Solar,Wind energy,Renewable energy",,,,Chicago, Illinois,,
0,SoCore Energy,NA,NA,SoCore Energy,SoCore Energy,,"Chicago, Illinois",60601,Solar,Chicago-based solar installer and mounting solution company that also arranges for solar loans and PPAs.,,,Chicago, Illinois,,
0,UPC Solar Managment LLC,NA,NA,UPC Solar Managment LLC,UPC Solar Managment LLC,,"Chicago, Illinois",60606,"Renewable Energy,Solar","UPC Solar is a renewable energy development company that finances, owns and operates commercial scale PV energy projects throughout North America.",,,Chicago, Illinois,,
0,Windy City Renewable Energy LLC,312-685-9273,www.windycityrenewableenergy.c ,Windy City Renewable Energy LLC,Windy City Renewable Energy LLC,,"Chicago, Illinois",60606,Solar,SHW & PV,http://www.windycityrenewableenergy.com/,,Chicago, Illinois,,
0,Wanxiang America Corporation,NA,NA,Wanxiang America Corporation,Wanxiang America Corporation,,"Elgin, Illinois",60123,"Solar,Vehicles","Wanxiang America Corporation, based in Chicago, is the US home office of Wanxiang Group Companies China, which makes joints and bearings and is developing solar power and electric vehicles.",,,Elgin, Illinois,,
0,American Renewable Energy,NA,NA,American Renewable Energy,American Renewable Energy,,"Evanston, Illinois",60202,"Geothermal energy,Renewable Energy,Solar","American Renewable Energy is a manufacturer and distributor of micro grids, focusing on geothermal, solar, photovoltaic, and solarthermal energy.",,,Evanston, Illinois,,
0,Advanced Energy Solutions,618-893-1717,www.aessolar.com/ ,Advanced Energy Solutions,Advanced Energy Solutions,192 Gates Road,"Pomona, Illinois",62975,Solar,,http://www.aessolar.com/,,Pomona, Illinois,,
0,FPC Services Inc,NA,NA,FPC Services Inc,FPC Services Inc,,"Sublette, Illinois",61367,"Solar,Wind energy","A developer of utility scale wind projects and an installer of small systems, of up to 51.0kW of wind and solar for individuals.",,,Sublette, Illinois,,
0,Solarvest BioEnergy,NA,NA,Solarvest BioEnergy,Solarvest BioEnergy,,"Bloomington, Indiana",3057,"Bioenergy,Hydro,Hydrogen,Solar","Solarvest BioEnergy's primary focus is to develop hydrogen, methane and biodiesel fuels from algae.",,,Bloomington, Indiana,,
0,Inovateus Solar,NA,NA,Inovateus Solar,Inovateus Solar,19890 State Line Rd.,"South Bend, Indiana",46637,Solar,Indiana-based PV systems integrator focusing on the commercial market. Inovateus also operates a string of dealerships distributing solar modules around the US.,,,South Bend, Indiana,,
0,Inovateus Solar LLC,574-485-1400,www.inovateussolar.com/ ,Inovateus Solar LLC,Inovateus Solar LLC,19890 State Line Rd.,"South Bend, Indiana",46637,Solar,,http://www.inovateussolar.com/,,South Bend, Indiana,,
0,Megawatt Energy Systems,317.797.3381,www.mwenergysystems.com ,Megawatt Energy Systems,Megawatt Energy Systems,,"Zionsville, Indiana",,"Renewable Energy,Services,Solar,Wind energy",,http://www.mwenergysystems.com,,Zionsville, Indiana,,
0,Natural Solutions,319-277-7842,www.naturalsolutions-skylights ,Natural Solutions,Natural Solutions,3715 Briarwood Dr.,"Cedar Falls, Iowa",50613,Solar,solar and wind systems,http://www.naturalsolutions-skylights.com/index.htm,,Cedar Falls, Iowa,,
0,Solar Dynamics,NA,NA,Solar Dynamics,Solar Dynamics,,"Ottumwa, Iowa",IA 52501,Solar,Solar Dynamics is a US-based solar powered attic roof vents manufacturer and developer of battery maintainers.,,,Ottumwa, Iowa,,
0,Energy Savings Store,913-495-9434,www.ewindandsolar.com/ ,Energy Savings Store,Energy Savings Store,15209 W. 99th Street,"Lenexa, Kansas",66219,Solar,Solar and wind systems,http://www.ewindandsolar.com/,,Lenexa, Kansas,,
0,Sky Vegetables,NA,www.skyvegetables.com/index.ht ,Sky Vegetables,Sky Vegetables,"45 Rosemary Street, Suite F","Needham, MA",2494,Solar,,http://www.skyvegetables.com/index.html,,Needham, MA,,
0,Ascendant Energy Company Inc,NA,NA,Ascendant Energy Company Inc,Ascendant Energy Company Inc,,"Rockland, Maine",4841,Solar,"Manufactures and distributes solar thermal heat, hot water systems, and PV panels, but is also designing its own concentrated PV device.",,,Rockland, Maine,,
0,Solar Style Inc,NA,NA,Solar Style Inc,Solar Style Inc,,"Baltimore, Maryland",21244,Solar,US-based manufacturer of solar battery recharger.,,,Baltimore, Maryland,,
0,SunEdison LLC,NA,NA,SunEdison LLC,SunEdison LLC,,"Beltsville, Maryland",20705,Solar,Maryland-based provider of financial and installation solutions for solar projects.,,,Beltsville, Maryland,,
0,SunEdison Solar,NA,www.sunedison.com/ ,SunEdison Solar,SunEdison Solar,12500 Baltimore Avenue,"Beltsville, Maryland",20705,Solar,,http://www.sunedison.com/,Northeast - NY NJ CT PA Area,Beltsville, Maryland,,
0,LightSpin Technologies Inc,NA,NA,LightSpin Technologies Inc,LightSpin Technologies Inc,,"Bethesda, Maryland",20815,Solar,"Early-development-stage company, affiliated with Yale University, developing new indium phosphide compound semiconductors which may have solar cell applications.",,,Bethesda, Maryland,,
0,BP Solar,NA," http://www.nrel.gov/news/press/2002/2502_nrel_wins_award.html
",BP Solar,BP Solar,,"Frederick, Maryland",21703,Solar,Maryland-based subsidiary of BP Alternative Energy dealing with solar power.,http://www.bp.com/genericcountryjump.do?categoryId=9070&contentId=7038143,,Frederick, Maryland,,
0,Standard Solar,888-474-3843,www.StandardSolar.com ,Standard Solar,Standard Solar,202 Perry Parkway,"Gaithersburg, Maryland",20877,Solar,Solar Integration Specialists - Residential and Commercial,http://www.StandardSolar.com,Northeast - NY NJ CT PA Area,Gaithersburg, Maryland,,
0,Standard Solar Inc,NA,NA,Standard Solar Inc,Standard Solar Inc,,"Gaithersburg, Maryland",20877,Solar,A Maryland-based installer of solar equipment for the residential and commercial sector.,,,Gaithersburg, Maryland,,
0,TESSCO,NA,NA,TESSCO,TESSCO,,"Hunt Valley, Maryland",21031-1494,"Solar,Wind energy",Retailer of wireless communications and networking products and solutions to businesses; involved in production of solar and wind energy equipment.,,,Hunt Valley, Maryland,,
0,Emerging Energy Consultants,301-865-3207,NA,Emerging Energy Consultants,Emerging Energy Consultants,3307 Nicholas Court,"Ijamsville, Maryland",21754,Solar,Consulting on emerging energy technologies,,,Ijamsville, Maryland,,
0,Switch LLC,NA,NA,Switch LLC,Switch LLC,,"Mongomery Village, Maryland",20886,Solar,"Installer and distributor of small-scale solar passive, PV, fuel cell, and other distributed energy systems.",,,Mongomery Village, Maryland,,
0,University Park Community Solar LLC,NA,www.universityparksolar.com ,University Park Community Solar LLC,University Park Community Solar LLC,4313 Tuckerman St.,"University Park, Maryland",20782,"Renewable Energy,Solar",Solar generated electricity,http://www.universityparksolar.com,Northeast - NY NJ CT PA Area,University Park, Maryland,,
0,Freedom Energy Solutions LLC,NA,NA,Freedom Energy Solutions LLC,Freedom Energy Solutions LLC,,"Westminster, Maryland",21157,"Geothermal energy,Solar","Retailer and installer of solar passive, PV and geothermal systems for household use.",,,Westminster, Maryland,,
0,Boreal Renewable Energy,NA,NA,Boreal Renewable Energy,Boreal Renewable Energy,,"Acton, Massachusetts",1720,"Hydro,Renewable Energy,Solar,Wind energy","Renewable Energy Development implements land-based wind, solar, hydroelectric, and other renewable energy projects from inception to commissioning and beyond.",,,Acton, Massachusetts,,
0,Boreal Renewable Energy Development,NA,www.Boreal-Renewable.com ,Boreal Renewable Energy Development,Boreal Renewable Energy Development,,"Arlington, Massachusetts",,"Solar,Wind",,http://www.Boreal-Renewable.com,Greater Boston Area,Arlington, Massachusetts,,
0,Spire Corporation,NA,NA,Spire Corporation,Spire Corporation,,"Bedford, Massachusetts",01730-2,Solar,Spire specialises in equipment for manufacturing turnkey PV modules lines; manufactures BIPV modules through its JV with Taiwan's Gloria Solar.,,,Bedford, Massachusetts,,
0,Spire Solar,NA,www.spirecorp.com/spire-solar/ ,Spire Solar,Spire Solar,One Patriots Park,"Bedford, Massachusetts",1730,Solar,Manufactures modules and provides PV manufacturing equipment,http://www.spirecorp.com/spire-solar/index.php,Greater Boston Area,Bedford, Massachusetts,,
0,North Shore Solar & Windpower,NA,www.northshorewind.com/ ,North Shore Solar & Windpower,North Shore Solar & Windpower,71 Cabot Street,"Beverly, Massachusetts",1915,Solar,Solar and wind installer,http://www.northshorewind.com/,Greater Boston Area,Beverly, Massachusetts,,
0,MTPV Corporation,NA,www.mtpvcorp.com/ ,MTPV Corporation,MTPV Corporation,8 St. Mary's Street,"Boston, Massachusetts",2215,Solar,Solar thermal technology,http://www.mtpvcorp.com/,Greater Boston Area,Boston, Massachusetts,,
0,"Practical Solar, Inc",617-464-1770,www.practicalsolar.com/ ,"Practical Solar, Inc","Practical Solar, Inc","516 E. 2nd Street, Unit 18","Boston, Massachusetts",2127,Solar,HE500 Heliostat System,http://www.practicalsolar.com/,Greater Boston Area,Boston, Massachusetts,,
0,Satcon,NA,www.satcon.com/ ,Satcon,Satcon,27 Drydock Avenue,"Boston, Massachusetts",2210,Solar,Solar PV and fuel cell inverters,http://www.satcon.com/,Greater Boston Area,Boston, Massachusetts,,
0,Solar Generations LLC,NA,www.solargenerations.net/ ,Solar Generations LLC,Solar Generations LLC,965 W. Main Street,"Branford, Massachusetts",6405,Solar,Distributor of solar thermal products,http://www.solargenerations.net/,Greater Boston Area,Branford, Massachusetts,,
0,Mohave Sun Power LLC,NA,NA,Mohave Sun Power LLC,Mohave Sun Power LLC,,"Cambridge, Massachusetts",2139,Solar,Project developer with solar interests in US Southwest,,,Cambridge, Massachusetts,,
0,Phototaxis Solar,NA,NA,Phototaxis Solar,Phototaxis Solar,,"Cambridge, Massachusetts",,Solar,Solar start-up planning to construct solar-panel covered roofs over parking lots.,,,Cambridge, Massachusetts,,
0,SolSolution,805-813-4418,www.sol-solution.org ,SolSolution,SolSolution,"485 Massachusetts Avenue
Suite 300","Cambridge, Massachusetts",2139,Solar,,http://www.sol-solution.org,Greater Boston Area,Cambridge, Massachusetts,,
0,Sun Catalytix,NA,NA,Sun Catalytix,Sun Catalytix,,"Cambridge, Massachusetts",2139,"Hydro,Hydrogen,Solar",Massachusetts-based firm developing technology that would use solar power to split water and produce hydrogen gas that could then be used to generate power.,,,Cambridge, Massachusetts,,
0,Sunborne Energy Technologies,NA,NA,Sunborne Energy Technologies,Sunborne Energy Technologies,,"Cambridge, Massachusetts",2138,Solar,Massachusetts-based solar thermal project developer.,,,Cambridge, Massachusetts,,
0,Synergetic Power Systems,NA,NA,Synergetic Power Systems,Synergetic Power Systems,,"Cambridge, Massachusetts",,"Buildings,Solar","Start-up planning to install parabolic concentrated solar collector systems on large flat-roofed buildings to power their HVAC systems, and provide back-up and peak demand power.",,,Cambridge, Massachusetts,,
0,RSI Silicon Products LLC,NA,NA,RSI Silicon Products LLC,RSI Silicon Products LLC,,"Easton, Massachusetts",18040,Solar,"Early-stage startup which is developing a process for solar-grade silicon manufacture at low energy intensity, spinoff from MIT.",,,Easton, Massachusetts,,
0,"Ameresco, Inc.",NA,www.ameresco.com ,"Ameresco, Inc.","Ameresco, Inc.","111 Speen St, Ste 410","Framingham, Massachusetts",1701,"Biomass,Buildings,Efficiency,Geothermal energy,Renewable Energy,Services,Solar,Wind energy",Energy Services; Energy Consulting; Energy Audits; Electricity Efficiency; Water Efficiency; Weatherization; ; Engineering/design; Installation; Investment; Finance,http://www.ameresco.com,Greater Boston Area,Framingham, Massachusetts,,
0,SolarOne Solutions,NA,www.solarone.net/ ,SolarOne Solutions,SolarOne Solutions,354 Waverly Street,"Framingham, Massachusetts",1702,Solar,Solar powered lighting,http://www.solarone.net/,Greater Boston Area,Framingham, Massachusetts,,
0,Solar Design Associates Inc,NA,www.solardesign.com/ ,Solar Design Associates Inc,Solar Design Associates Inc,P.O. Box 242,"Harvard, Massachusetts",1451,Solar,Integration of solar and other renewable energy systems in building designs,http://www.solardesign.com/,Greater Boston Area,Harvard, Massachusetts,,
0,Heliotronics Inc,NA,www.heliotronics.com/ ,Heliotronics Inc,Heliotronics Inc,1083 Main Street,"Hingham, Massachusetts",2043,Solar,Monitoring systems for PV systems,http://www.heliotronics.com/,Greater Boston Area,Hingham, Massachusetts,,
0,AltE,NA,NA,AltE,AltE,43 Broad Street,"Hudson, Massachusetts",1749,Solar,Distributor of renewable energy parts and kits,http://store.altestore.com/,Greater Boston Area,Hudson, Massachusetts,,
0,New England Breeze Solar and Wind Installers,978-567-9463,www.NewEnglandBreeze.com ,New England Breeze Solar and Wind Installers,New England Breeze Solar and Wind Installers,,"Hudson, Massachusetts",1749,"Services,Solar,Wind energy,Renewable energy",Solar Panel and Wind Turbine Installation,http://www.NewEnglandBreeze.com,Greater Boston Area,Hudson, Massachusetts,,
0,Solectria Renewables LLC,NA,www.solren.com/ ,Solectria Renewables LLC,Solectria Renewables LLC,360 Merrimack Street,"Lawrence, Massachusetts",1843,Solar,Power electronics and system for renewable energy power generation,http://www.solren.com/,Greater Boston Area,Lawrence, Massachusetts,,
0,Konarka Technologies Inc,NA,www.konarka.com/ ,Konarka Technologies Inc,Konarka Technologies Inc,116 John Street,"Lowell, Massachusetts",1852,Solar,Makes specialized photovoltaic materials used to collect solar energy,http://www.konarka.com/,Greater Boston Area,Lowell, Massachusetts,,
0,"Evergreen Solar, Inc.",NA,www.evergreensolar.com/app/en/ ,"Evergreen Solar, Inc.","Evergreen Solar, Inc.",138 Bartlett Street,"Malboro, Massachusetts",1752,Solar,"Manufactures solar wafers, cells and panels",http://www.evergreensolar.com/app/en/home/,Greater Boston Area,Malboro, Massachusetts,,
0,Nanoptek,NA,NA,Nanoptek,Nanoptek,,"Maynard, Massachusetts",1754,"Efficiency,Hydro,Hydrogen,Solar","Developer of photocatalytic technologies for producing hydrogen from fresh and salt water. Its system is compatible with solar thermal concentrators, which boost its efficiency.",,,Maynard, Massachusetts,,
0,Nanoptek Inc,NA,www.nanoptek.com/ ,Nanoptek Inc,Nanoptek Inc,"63 Great Road, Suite 106","Maynard, Massachusetts",1754,Solar,Solar powered electrolysis (solar hydrogen),http://www.nanoptek.com/,Greater Boston Area,Maynard, Massachusetts,,
0,Environmental Solar Systems,NA,www.environmentalsolarsystems. ,Environmental Solar Systems,Environmental Solar Systems,117 West Street,"Methuen, Massachusetts",1844,Solar,Solar thermal panels for home heating,http://www.environmentalsolarsystems.com/,Greater Boston Area,Methuen, Massachusetts,,
0,Seahorse Power Company,NA,NA,Seahorse Power Company,Seahorse Power Company,,"Needham, Massachusetts",2492,Solar,Manufactures and markets the BigBelly solar powered trash compactor.,,,Needham, Massachusetts,,
0,SolarOne Solutions Inc,NA,NA,SolarOne Solutions Inc,SolarOne Solutions Inc,,"Needham, Massachusetts",2494,Solar,Massachusetts-based manufacturer and retailer of solar powered LED lighting systems.,,,Needham, Massachusetts,,
0,Nexamp Inc,NA,www.nexamp.com/ ,Nexamp Inc,Nexamp Inc,21 High Street,"North Andover, Massachusetts",1845,Solar,Energy and carbon reduction systems integrator,http://www.nexamp.com/,Greater Boston Area,North Andover, Massachusetts,,
0,Stellaris Corporation,NA,www.stellaris-corp.com/ ,Stellaris Corporation,Stellaris Corporation,16 Esquire Road,"North Billerica, Massachusetts",1862,Solar,Solar PV panels,http://www.stellaris-corp.com/,Greater Boston Area,North Billerica, Massachusetts,,
0,American Capital Energy,(866) 307-5370,www.americancapitalenergy.com/ ,American Capital Energy,American Capital Energy,15 Tyngsboro Rd. Suite 4A,"North Chelmsford, Massachusetts",1863,Solar,solar electric systems,http://www.americancapitalenergy.com/,Greater Boston Area,North Chelmsford, Massachusetts,,
0,Soluz Inc,NA,www.soluzusa.com/ ,Soluz Inc,Soluz Inc,55 Middlesex Street,"North Chelmsford, Massachusetts",1863,Solar,Distributes micro-generation solar products,http://www.soluzusa.com/,Greater Boston Area,North Chelmsford, Massachusetts,,
0,1366 Technologies,NA,www.1366tech.com/ ,1366 Technologies,1366 Technologies,45 Hartwell Avenue,"North Lexington, Massachusetts",2421,Solar,"Developer of technologies for enhancing PV efficiency, including new cell wiring and wafer packaging systems.",http://www.1366tech.com/,,North Lexington, Massachusetts,,
0,Munro Solar,(508) 536-2196,www.munrosolar.com ,Munro Solar,Munro Solar,33 Commercial St,"Raynham, Massachusetts",2767,Solar,Photovoltaics,http://www.munrosolar.com,Greater Boston Area,Raynham, Massachusetts,,
0,Crystal Systems,NA,www.crystalsystems.com/ ,Crystal Systems,Crystal Systems,27 Congress Street,"Salem, Massachusetts",1970,Solar,Silicon producer,http://www.crystalsystems.com/,Greater Boston Area,Salem, Massachusetts,,
0,Kosmo Solar,NA,NA,Kosmo Solar,Kosmo Solar,,"Springfield, Massachusetts",1109,"Services,Solar","Kosmo Solar offers installation, repair, consulting, design and project management services for both solar energy and energy conservation projects.",,,Springfield, Massachusetts,,
0,Beacon Power Corp,NA,NA,Beacon Power Corp,Beacon Power Corp,,"Tyngsboro, Massachusetts",1879,Solar,US-based developer of solar PV inverters and flywheel-based energy storage systems.,,,Tyngsboro, Massachusetts,,
0,Global Energy Investors,NA,NA,Global Energy Investors,Global Energy Investors,,"Waltham, Massachusetts",2451,"Biomass,Hydro,Solar,Wind energy",Massachusetts-based Global Energy Investors was formed in 2009 to invest primarily in wind and solar power projects but it may also consider biomass and hydro projects.,,,Waltham, Massachusetts,,
0,Mears Technology,NA,NA,Mears Technology,Mears Technology,,"Waltham, Massachusetts",2451,Solar,Waltham-based developer of manufacturing technology for semiconductor chip producers. The firm's MEARS Silicon Technology can be used in solar applicaiton.,,,Waltham, Massachusetts,,
0,Bandgap Engineering Inc,781-902-0310,www.bandgap.com/ ,Bandgap Engineering Inc,Bandgap Engineering Inc,6 Gill Street,"Woburn, Massachusetts",1801,Solar,Developing high efficiency solar cells,http://www.bandgap.com/,Greater Boston Area,Woburn, Massachusetts,,
0,Wakonda Technologies,NA,NA,Wakonda Technologies,Wakonda Technologies,2A Gill Street,"Woburn, Massachusetts",1801,Solar,High efficiency solar panels,http://wakondatech.com/,Greater Boston Area,Woburn, Massachusetts,,
0,AEE Renewables,2027166664,NA,AEE Renewables,AEE Renewables,,"Ann Arbor, Michigan",,Solar,,http://aee-renewables.com,,Ann Arbor, Michigan,,
0,Guardian Industries Corp,NA,NA,Guardian Industries Corp,Guardian Industries Corp,,"Auburn Hills, Michigan",48326-1714,Solar,Michigan-based firm that manufactures float glass and fabricated glass products. Applications of their products cover PV and Solar Thermal Electricity Generation (STEG).,,,Auburn Hills, Michigan,,
0,Luma Resources LLC,NA,NA,Luma Resources LLC,Luma Resources LLC,,"Rochester Hills, Michigan",48309,Solar,Michigan-based developer and installer of solar roof kits for the residential market.,,,Rochester Hills, Michigan,,
0,Cone Drive Operations Inc,NA,NA,Cone Drive Operations Inc,Cone Drive Operations Inc,,"Traverse City, Michigan",49684,Solar,US-based manufacturers of double enveloping worm gear technology. The company supplies azimuth and elevation drives for solar tracking applications.,,,Traverse City, Michigan,,
0,Conservation Technologies,(218) 722-9003,www.conservtech.com/ ,Conservation Technologies,Conservation Technologies,4804 Oneota St,"Duluth, Minnesota",55807,Solar,solar electric systems,http://www.conservtech.com/,,Duluth, Minnesota,,
0,JJR Power,NA,NA,JJR Power,JJR Power,,"Excelsior, Minnesota",55331,"Solar,Wind energy",Engaged in solar and wind power financing and development.,,,Excelsior, Minnesota,,
0,Despatch Industries,NA,NA,Despatch Industries,Despatch Industries,,"Minneapolis, Minnesota",55044,Solar,"Manufacturer of infrared drying and firing furnaces used in solar cell manufacture, and other thermal processing equipment.",,,Minneapolis, Minnesota,,
0,FreEner-g,612.605.5228,www.freener-g.com/ ,FreEner-g,FreEner-g,2740 31st Avenue South,"Minneapolis, Minnesota",55406,Solar,solar electric systems,http://www.freener-g.com/,,Minneapolis, Minnesota,,
0,Cima NanoTech,NA,NA,Cima NanoTech,Cima NanoTech,,"St. Paul, Minnesota",55114-1067,Solar,"A US based manufacturer and researcher of nanomaterials, including nanoparticle conductive inks and transparent conductive coatings for solar cells.",,,St. Paul, Minnesota,,
0,Innovative Power Systems,612-623-3246,www.ips-solar.com/Index.html ,Innovative Power Systems,Innovative Power Systems,1413 Hunting Valley Road,"St. Paul, Minnesota",55108,Solar,solar and wind electric systems,http://www.ips-solar.com/Index.html,,St. Paul, Minnesota,,
0,Armstrong Teasdale Future Energy Group,314.621.5070,www.armstrongteasdale.com/Prac ,Armstrong Teasdale Future Energy Group,Armstrong Teasdale Future Energy Group,"7700 Forsyth Boulevard, Suite 1800","St. Louis, Missouri",63105,"Biofuels,Biomass,Buildings,Carbon,Efficiency,Geothermal energy,Hydro,Hydrogen,Services,Solar,Vehicles,Wind energy,Bioenergy,Renewable energy",Legal Services,http://www.armstrongteasdale.com/PracticeAreas/FutureEnergyGroup/index.php,,St. Louis, Missouri,,
0,Clean Power Design,877-220-9596,www.CleanPowerDesign.com/ ,Clean Power Design,Clean Power Design,"400 South Fourth Street, Suite 809","St. Louis, Missouri",63102,Solar,Solar Design and Supply,http://www.CleanPowerDesign.com/,,St. Louis, Missouri,,
0,Semitool Inc,NA,NA,Semitool Inc,Semitool Inc,,"Kalispell, Montana",59901,Solar,US manufacturer of fab equipment for semiconductors and solar such as wet chemical processing systems and electrochemical deposition systems.,,,Kalispell, Montana,,
0,Sage Resources,NA,NA,Sage Resources,Sage Resources,,"Missoula, Montana",59803,"Geothermal energy,Solar","A company specializing in geothermal and solar-thermal project development in the western United States; works with private firms, government, and the DOE.",,,Missoula, Montana,,
0,SolarMission Technologies Inc,NA,NA,SolarMission Technologies Inc,SolarMission Technologies Inc,,"Missoula, Montana",59801,Solar,US-based company that owns a licence to solar chimney technology; also manufactures and installs.,,,Missoula, Montana,,
0,Soleil Energy Solutions Greensboro North Carolina,(336) 285-8727,www.bizsoleil.com ,Soleil Energy Solutions Greensboro North Carolina,Soleil Energy Solutions Greensboro North Carolina,306 Pomona Dr. Suite C,"Greensboro, NC",27407,Solar,,http://www.bizsoleil.com,,Greensboro, NC,,
0,Vidler Water Company Inc,NA,NA,Vidler Water Company Inc,Vidler Water Company Inc,,"Carson City, Nevada",89703,Solar,Nevada-based water and land resource company which is also enegaged in the development of solar power projects on its properties.,,,Carson City, Nevada,,
0,Sierra Nevada Partners,NA,NA,Sierra Nevada Partners,Sierra Nevada Partners,,"Incline Village, Nevada",89450,"Renewable Energy,Solar","Investment firm actively seeking acquisitions in renewable energy, in particular, solar in the western United States.",,,Incline Village, Nevada,,
0,Renewable Capital,NA,NA,Renewable Capital,Renewable Capital,,"Las Vegas, Nevada",89109,Solar,"Investment vehicle of Ed Stevenson, founder of Solar Integrated Technologies, and Bob Hertzberg, former Speaker of the California State Assembly.",,,Las Vegas, Nevada,,
0,Vectron International,NA,NA,Vectron International,Vectron International,,"Hudson, New Hampshire",3051,Solar,"Designs, manufactures and markets frequency control, sensor and hybrid product solutions, such as solar inverters.",,,Hudson, New Hampshire,,
0,JP Sercel Associates Inc,NA,NA,JP Sercel Associates Inc,JP Sercel Associates Inc,,"Manchester, New Hampshire",3102,Solar,US-based manufacturer of scribing machinese for the semiconductor and solar industries.,,,Manchester, New Hampshire,,
0,"GT Solar, Inc.",(603) 883-5200,www.gtsolar.com/ ,"GT Solar, Inc.","GT Solar, Inc.",243 Daniel Webster Highway,"Merrimack, New Hampshire",3054,Solar,solar power systems,http://www.gtsolar.com/,Northeast - NY NJ CT PA Area,Merrimack, New Hampshire,,
0,Eolian Renewable Energy LLC,NA,NA,Eolian Renewable Energy LLC,Eolian Renewable Energy LLC,,"Portsmouth, New Hampshire",3801,"Solar,Wind energy","New Hampshire-based clean energy project developer, with focus on community wind and solar.",,,Portsmouth, New Hampshire,,
0,United Energy,201-697-8770,www.unitedenergypro.com/ ,United Energy,United Energy,"284, Old Deal Rd","Eatontown, New Jersey",7722,Solar,"Energy Efficiency, Renewable Energy",http://www.unitedenergypro.com/,Northeast - NY NJ CT PA Area,Eatontown, New Jersey,,
0,Trinity Solar,NA,NA,Trinity Solar,Trinity Solar,,"Freehold, New Jersey",7728,Solar,A provider of solar energy systems to home and business owners.,,,Freehold, New Jersey,,
0,BGA Engineering LLC,NA,NA,BGA Engineering LLC,BGA Engineering LLC,,"Glen Rock, New Jersey",7452,Solar,"Engineering firm specialising in substation engineering and design, power plant engineering and on-site generation, including cogeneration, solar and microturbines.",,,Glen Rock, New Jersey,,
0,Euro Solar Parks Inc,NA,NA,Euro Solar Parks Inc,Euro Solar Parks Inc,,"Ho-ho-Kus, New Jersey",7423,Solar,"New Jersey-based solar developer focused on development of projects in Europe, specifically Greece, and South America.",,,Ho-ho-Kus, New Jersey,,
0,Aurora Photovoltaics Manufacturing,NA,NA,Aurora Photovoltaics Manufacturing,Aurora Photovoltaics Manufacturing,,"Lawrenceville, New Jersey",8648,Solar,"A subsidiary of EPV solar, based in New Jersey, focused on manufacturing of PV cells.",,,Lawrenceville, New Jersey,,
0,MAK Technologies,NA,NA,MAK Technologies,MAK Technologies,,"Lebanon, New Jersey",8833,Solar,Designs and installs solar electric and solar thermal systems,,,Lebanon, New Jersey,,
0,Solar America LLC,NA,NA,Solar America LLC,Solar America LLC,,"Marmora, New Jersey",8223,Solar,New Jersey-based company that designs and installs Solar Electric Systems for Homeowners and Business Owners.,,,Marmora, New Jersey,,
0,Energy Enterprises,NA,NA,Energy Enterprises,Energy Enterprises,,"Mays Landing, New Jersey",8330,Solar,"Energy Enterprises is a licensed dealer, installer, and servicer of solar energy systems, serving residential and commercial customers primarily in southern New Jersey.",,,Mays Landing, New Jersey,,
0,The Solar Center Inc,NA,NA,The Solar Center Inc,The Solar Center Inc,,"New Jersey, New Jersey",7834,Solar,US-based PV and solar passive system installer.,,,New Jersey, New Jersey,,
0,Aston Solar LLC,NA,NA,Aston Solar LLC,Aston Solar LLC,,"Piscataway, New Jersey",8854,Solar,New Jersey-based solar energy service company.,,,Piscataway, New Jersey,,
0,Oxford Solar,NA,NA,Oxford Solar,Oxford Solar,,"Randolph, New Jersey",7869,Solar,Oxford Solar provides solar energy consulting and installation for both large and small-scale solar electric power applications.,,,Randolph, New Jersey,,
0,GeoPeak Energy,732-377-3700,www.geopeakenergy.com ,GeoPeak Energy,GeoPeak Energy,285 Davidson Avenue,"Somerset, New Jersey",8873,Solar,Residential and Commercial PV Solar Installations,http://www.geopeakenergy.com,Northeast - NY NJ CT PA Area,Somerset, New Jersey,,
0,SunDurance Energy,NA,NA,SunDurance Energy,SunDurance Energy,,"South Plainfield, New Jersey",7080,Solar,"SunDurance Energy develops, owns and operates customized solar power solutions for forward-thinking corporations, government entities and communities.",,,South Plainfield, New Jersey,,
0,NEXTGen Syndicate LLC,NA,NA,NEXTGen Syndicate LLC,NEXTGen Syndicate LLC,,"West Berlin, New Jersey",8091,"Renewable Energy,Solar","Startup planning to develop renewable energy projects in India, starting with a 200MW hybrid solar/ gas plant in Gujerat.",,,West Berlin, New Jersey,,
0,Conserval Systems Inc.,7168354903,www.solarwall.com ,Conserval Systems Inc.,Conserval Systems Inc.,4242 Ridge Lea Road Unit 28,"Buffalo, New York",14226,Solar,solar air heating systems,http://www.solarwall.com,Northeast - NY NJ CT PA Area,Buffalo, New York,,
0,Schott North America Inc,NA,www.us.schott.com/ ,Schott North America Inc,Schott North America Inc,555 Taxter Road,"Elmsford, New York",10523,Solar,Solar PV developer,http://www.us.schott.com/,Northeast - NY NJ CT PA Area,Elmsford, New York,,
0,Jasper Energy LLC,NA,NA,Jasper Energy LLC,Jasper Energy LLC,,"Harrison, New York",10528,"Renewable Energy,Solar,Wind energy",,,,Harrison, New York,,
0,REgeneration Finance,NA,NA,REgeneration Finance,REgeneration Finance,,"Harrison, New York",10528,Solar,New York State-based distributed solar generation project financier and developer.,,,Harrison, New York,,
0,"Prism Solar Technologies, Inc.",845-883-4200,www.prismsolar.com ,"Prism Solar Technologies, Inc.","Prism Solar Technologies, Inc.",180 South Street,"Highland, New York",12528,Solar,Holographic Film,http://www.prismsolar.com,Northeast - NY NJ CT PA Area,Highland, New York,,
0,SunWize Technologies Inc,NA,NA,SunWize Technologies Inc,SunWize Technologies Inc,,"Kingston, New York",12401,Solar,Specialises in the manufacture of integrated solar power systems and the distribution of solar modules and components.,,,Kingston, New York,,
0,Sunwave Enterprises,NA,NA,Sunwave Enterprises,Sunwave Enterprises,,"Long Island, New York",,Solar,Installer of solar energy systems.,,,Long Island, New York,,
0,ISI Solar,NA,NA,ISI Solar,ISI Solar,,"New City, New York",10956,Solar,US-based company that designs and installs solar power systems for residential and commercial clients.,,,New City, New York,,
0,Advanced Solar Power Inc.,(631) 765-2754,NA,Advanced Solar Power Inc.,Advanced Solar Power Inc.,,"New York, New York",,Solar,"Solar electric systems, solar hot water",http://solarli.com/index.html,Northeast - NY NJ CT PA Area,New York, New York,,
0,Caithness Energy LLC,NA,NA,Caithness Energy LLC,Caithness Energy LLC,,"New York, New York",10017,"Geothermal energy,Renewable Energy,Solar,Wind energy","Caithness Energy is a renewable energy project developer, plant owner and investor focusing on geothermal, wind and solar power.",,,New York, New York,,
0,Civitas Energy,(609) 375-8950,NA,Civitas Energy,Civitas Energy,"201 E 69th St, Suite 7S","New York, New York",10021,Solar,Solar Energy,http://CivitasEnergy.com,Northeast - NY NJ CT PA Area,New York, New York,,
0,Elemental Energy LLC,NA,NA,Elemental Energy LLC,Elemental Energy LLC,,"New York, New York",10065,Solar,"Elemental Energy develops, owns and operates distributed solar energy facilities and sells solar-generated electricity through Power Purchase Agreements (PPA).",,,New York, New York,,Ukraine
0,FTL Solar LLC,NA,www.ftlsolar.com/ ,FTL Solar LLC,FTL Solar LLC,"44 East 32nd Street, Suite 350","New York, New York",10016,Solar,"Creator of flexible, tensile structures integrated with thin film solar cells",http://www.ftlsolar.com/,Northeast - NY NJ CT PA Area,New York, New York,,
0,Prime Sun Power,NA,NA,Prime Sun Power,Prime Sun Power,,"New York, New York",10005,Solar,US-based company that is involved with the development of European solar projects.,,,New York, New York,,
0,Solaire Generation,NA,NA,Solaire Generation,Solaire Generation,,"New York, New York",10001,Solar,New York-based rooftop PV mounting systems and solar canopy maker.,,,New York, New York,,
0,Solenergis LLC,NA,NA,Solenergis LLC,Solenergis LLC,,"New York, New York",11733,Solar,"New York-based developer, owner and operator of solar electricity generating facilities. Prioritizing activity in US-based projects.",,,New York, New York,,
0,TGI Solar Power Group,NA,NA,TGI Solar Power Group,TGI Solar Power Group,,"New York, New York",10001,Solar,"TGI Solar Power Group specialises in the manufacture and integration of thin film PV fabrication lines, PV thin film manufacturing equipment, as well as project development.",,,New York, New York,,
0,Canrom Photovoltaics Inc,NA,NA,Canrom Photovoltaics Inc,Canrom Photovoltaics Inc,,"Niagara Falls, New York",14305,Solar,Developer of a thin-film CdTe based solar electric module.,,,Niagara Falls, New York,,
0,Smart Solar Inc,NA,NA,Smart Solar Inc,Smart Solar Inc,,"Pittsford, New York",14534,Solar,Was developing concentrator PV modules and a system for monitoring solar panels for maintenance.,,,Pittsford, New York,,
0,CVD Equipment Corp,NA,NA,CVD Equipment Corp,CVD Equipment Corp,,"Ronkonkoma, New York",11779,Solar,New York-based maker of chemical vapour deposition process equipment. This equipment is used in the manufacture of solar and semiconductor fabrication.,,,Ronkonkoma, New York,,
0,Prism Solar Technologies Inc,NA,NA,Prism Solar Technologies Inc,Prism Solar Technologies Inc,,"Stone Ridge, New York",12484,Solar,JV formed between Direct Global Power and Genesis Solar for manufacture of a new solar module that incorporates Genesis Solar's patented holographic planar concentrator (HPC) technology.,,,Stone Ridge, New York,,
0,Veeco Instruments Inc,NA,NA,Veeco Instruments Inc,Veeco Instruments Inc,,"Woodbury, New York",11797,Solar,US manufacturer of production equipment mostly for data storage but also for CIGS thin-film solar and LED MOCVD manufacturing equipment.,,,Woodbury, New York,,
0,University of North Carolina,NA,NA,University of North Carolina,University of North Carolina,,"Chapel Hill, North Carolina",27514,"Solar,Wind energy","Chapel Hill-based public university of North Carolina with research interests in solar and wind, among other sectors.",,,Chapel Hill, North Carolina,,
0,Camstar Systems Inc,NA,NA,Camstar Systems Inc,Camstar Systems Inc,,"Charlotte, North Carolina",28217,Solar,"North Carolina-based manufacturing equipment supplier in industries include electronics, semiconductors, biotech and solar.",,,Charlotte, North Carolina,,
0,MCF Advisors LLC,NA,NA,MCF Advisors LLC,MCF Advisors LLC,,"Charlotte, North Carolina",28202,"Biomass,Renewable Energy,Services,Solar,Wind energy","Provide investment banking services to privately-held small to middle market businesses, with sector focus on traditional and renewable energy industries. Emphasis on solar, wind, biomass and biodiesel feedstock and refining.",,,Charlotte, North Carolina,,
0,Sencera International Corporation,NA,NA,Sencera International Corporation,Sencera International Corporation,,"Charlotte, North Carolina",28208,Solar,"Makes plasma tools for LCD, glass, and solar cell manufacturing, entered the amorphous and microcrystalline silicon manufacturing business in 2007.",,,Charlotte, North Carolina,,
0,Semprius,NA,NA,Semprius,Semprius,,"Durham, North Carolina",,Solar,North Carolina-based start-up focused on the development of concentrator photovoltaic (CPV) modules for large-scale solar power generation.,,,Durham, North Carolina,,
0,North Carolina State University,NA,NA,North Carolina State University,North Carolina State University,,"Raleigh, North Carolina",27695,"Biofuels,Biomass,Solar","Public university in North Carolina, with research interests in biofuels, solar, and biomass-to-energy.",,,Raleigh, North Carolina,,
0,Torpedo Speciality Wire Inc,NA,NA,Torpedo Speciality Wire Inc,Torpedo Speciality Wire Inc,,"Rocky Mount, North Carolina",27804,Solar,"North Carolina-based maker of speciality wires, including ones for interconnecting solar cells and connecting modules. The firm also produces PV junction boxes.",,,Rocky Mount, North Carolina,,
0,"Sol-Up USA, LLC",+1 (702) 586-9800,www.sol-up.com ,"Sol-Up USA, LLC","Sol-Up USA, LLC","3355 West Spring Mountain Road, Suite 3","Las Vegas, NV",89102,Solar,"PV, Solar Thermal, Solar Cooling",http://www.sol-up.com,,Las Vegas, NV,,
0,Sunwize,NA,www.sunwize.com/ ,Sunwize,Sunwize,1155 Flatbush Road,"Kingston, NY",12401,Solar,Manufacturer and installer,http://www.sunwize.com/,Northeast - NY NJ CT PA Area,Kingston, NY,,
0,Lighthouse Solar Westchester,(917) 328-6667,www.lighthousesolar.com ,Lighthouse Solar Westchester,Lighthouse Solar Westchester,"344 Main Street, Suite 101","Mt. Kisco, NY",10549,Solar,,http://www.lighthousesolar.com,,Mt. Kisco, NY,,
0,"Echogen Power Systems, Inc.",234-542-4379,www.echogen.com ,"Echogen Power Systems, Inc.","Echogen Power Systems, Inc.",405 S. High Street,"Akron, Ohio",44311,"Carbon,Efficiency,Geothermal energy,Services,Solar",Energy provider: power production; Engineering/architectural/design; Manufacturing; Research and development,http://www.echogen.com,,Akron, Ohio,,
0,Jennings The Energy Factory,330-784-1286,NA,Jennings The Energy Factory,Jennings The Energy Factory,1671 East Market Street,"Akron, Ohio",44305,"Efficiency,Geothermal energy,Renewable Energy,Solar",Consulting; Engineering/architectural/design;Installation; Maintenance and repair; Retail product sales and distribution,http://Jenningsheating.com%3Btheenergyfactory.com,,Akron, Ohio,,
0,"Pier Associates, Inc.",330-745-9069,www.pierhvac.com ,"Pier Associates, Inc.","Pier Associates, Inc.",2317 Manchester Rd.,"Akron, Ohio",44314,"Buildings,Efficiency,Geothermal energy,Solar",Engineering/architectural/design,http://www.pierhvac.com,,Akron, Ohio,,
0,Morning Mist LLC,330-418-5942,www.akacleantech.com ,Morning Mist LLC,Morning Mist LLC,11592 McCallum Ave NE,"Alliance, Ohio",44601,"Biofuels,Biomass,Renewable Energy,Services,Solar,Wind energy",Business and legal services;Consulting; Investment/finances; Research and development,http://www.akacleantech.com,,Alliance, Ohio,,
0,Dovetail Solar and Wind,740-592-1800,www.dovetailsolar.com ,Dovetail Solar and Wind,Dovetail Solar and Wind,16675 Canaanville Hills Rd.,"Athens, Ohio",45701,"Bioenergy,Solar,Wind energy",Consulting; Engineering/architectural/design;Installation; Maintenance and repair; Retail product sales and distribution;Trainining and education,http://www.dovetailsolar.com,,Athens, Ohio,,
0,"DuPont Electronic Technologies, Inc.",(800) 967-5607,www2.dupont.com/Electronics/en ,"DuPont Electronic Technologies, Inc.","DuPont Electronic Technologies, Inc.",P.O. Box 89,"Athens, Ohio",45701,Solar,,http://www2.dupont.com/Electronics/en_US/,,Athens, Ohio,,
0,Panich + Noel Architects,740-592-2420,NA,Panich + Noel Architects,Panich + Noel Architects,"507 Richland Avenue, Suite 301","Athens, Ohio",45701,"Buildings,Efficiency,Solar",Consulting; Engineering/architectural/design,http://pnarch.com,,Athens, Ohio,,
0,Redhawk Energy Systems,740.927.6017,www.redhawkenergy.net/ ,Redhawk Energy Systems,Redhawk Energy Systems,10340 Palmer Rd. SW,"Athens, Ohio",45701,"Efficiency,Renewable Energy,Services,Solar,Wind energy",,http://www.redhawkenergy.net/,,Athens, Ohio,,
0,"Sunpower, Inc",740-594-2221,www.sunpower.com ,"Sunpower, Inc","Sunpower, Inc",182 Mill St,"Athens, Ohio",45701,"Biomass,Renewable Energy,Services,Solar",Agriculture; Energy provider: power production; Maintenance and repair;Manufacturing; Research and development,http://www.sunpower.com,,Athens, Ohio,,
0,Third Sun Solar and Wind Power,740-597-3111,www.third-sun.com ,Third Sun Solar and Wind Power,Third Sun Solar and Wind Power,340 West State St. Unit 25,"Athens, Ohio",45701,Solar,Consulting; Energy provider: power production; Engineering/architectural/design;Installation;Investment/finances;Maintenance and repair; Retail product sales and distribution,http://www.third-sun.com,,Athens, Ohio,,
0,Rotek Incorporated,330-562-4000,www.rotek-inc.com ,Rotek Incorporated,Rotek Incorporated,1400 South Chillicothe Road,"Aurora, Ohio",44202,"Services,Solar,Wind energy",Engineering/architectural/design; Maintenance and repair; Other:Component Supplier,http://www.rotek-inc.com,,Aurora, Ohio,,
0,Sadoun Solar Sales,330-562-4000,www.rotek-inc.com ,Sadoun Solar Sales,Sadoun Solar Sales,1400 South Chillicothe Road,"Aurora, Ohio",44202,"Services,Solar,Wind energy",Engineering/architectural/design; Maintenance and repair; Other:Component Supplier,http://www.rotek-inc.com,,Aurora, Ohio,,
0,Free Energy Alliance,216-367-2332,www.freeenergyalliance.com ,Free Energy Alliance,Free Energy Alliance,,"Avon, Ohio",44011,"Solar,Wind energy",,http://www.freeenergyalliance.com,,Avon, Ohio,,
0,Solsil Inc,NA,NA,Solsil Inc,Solsil Inc,,"Beverly, Ohio",45715,Solar,US-based manufacturer of upgrade metallurgical silicon for solar-use.,,,Beverly, Ohio,,
0,"Harris Battery Company, Inc.",330-874-0205,www.harrisbattery.com ,"Harris Battery Company, Inc.","Harris Battery Company, Inc.",10708 Industrial Pwky NW,"Bolivar, Ohio",44612,"Renewable Energy,Solar,Wind energy",Retail product sales and distribution,http://www.harrisbattery.com,,Bolivar, Ohio,,
0,Stark's Inc.,419-636-3606,NA,Stark's Inc.,Stark's Inc.,02425 County Road 12C,"Bryan, Ohio",43506,"Buildings,Efficiency,Geothermal energy,Services,Solar,Wind energy",Agriculture; Consulting; Energy provider: power production; Engineering/architectural/design;Installation; Maintenance and repair; Retail product sales and distribution;Trainining and education,http://starksinc.com,,Bryan, Ohio,,
0,Energy Transfer-MDE,330-627-4122,www.energytransferinc.com ,Energy Transfer-MDE,Energy Transfer-MDE,1100 Steubenville Rd,"Carrollton, Ohio",4415,"Biofuels,Geothermal energy,Solar,Wind energy",Manufacturing,http://www.energytransferinc.com,,Carrollton, Ohio,,
0,Ameridian Speciality Services,NA,NA,Ameridian Speciality Services,Ameridian Speciality Services,,"Cincinnati, Ohio",45241,Solar,"Ohio-based general contracting firm that specializes in commercial roof installation. The company is involved in solar PV rooftop design, installation and project management.",,,Cincinnati, Ohio,,
0,"Icon Solar Power, LLC",513-396-7777,www.iconsolarpower.com ,"Icon Solar Power, LLC","Icon Solar Power, LLC",862 East Crescentville Rd.,"Cincinnati, Ohio",45246,"Geothermal energy,Solar",,http://www.iconsolarpower.com,,Cincinnati, Ohio,,
0,Acorn Technology Corporation,216-663-1244,NA,Acorn Technology Corporation,Acorn Technology Corporation,23103 Miles Road,"Cleveland, Ohio",44128,"Biofuels,Services,Solar,Wind energy",,http://acorntechnology.com,,Cleveland, Ohio,,
0,Daylighter Daily Solar Roof Light,440-892-3312,www.SolarLightisFree.com ,Daylighter Daily Solar Roof Light,Daylighter Daily Solar Roof Light,"1991 Crocker Road, Suite 600","Cleveland, Ohio",44145,Solar,Installation; Manufacturing,http://www.SolarLightisFree.com,,Cleveland, Ohio,,
0,Ferro Corporation,NA,NA,Ferro Corporation,Ferro Corporation,,"Cleveland, Ohio",44114-7000,Solar,Cleveland-based manufacturer of metal pastes and powders for solar energy applications.,,,Cleveland, Ohio,,
0,Meyers Roman Friedberg and Lewis LPA,216-831-0042,www.meyersroman.com ,Meyers Roman Friedberg and Lewis LPA,Meyers Roman Friedberg and Lewis LPA,28601 Chagrin Blvd,"Cleveland, Ohio",44122,"Biofuels,Biomass,Renewable Energy,Solar,Wind energy",Business and legal services,http://www.meyersroman.com,,Cleveland, Ohio,,
0,NASA Glenn Research Center,216-977-7135,www.nasa.gov/centers/glenn/hom ,NASA Glenn Research Center,NASA Glenn Research Center,21000 Brookpark Rd.,"Cleveland, Ohio",44135,"Biofuels,Carbon,Efficiency,Renewable Energy,Solar,Wind energy",Research and development,http://www.nasa.gov/centers/glenn/home/index.html,,Cleveland, Ohio,,
0,NorTech,216-363-6883,www.nortech.org ,NorTech,NorTech,"737 Bolivar Rd, Suite 1000","Cleveland, Ohio",44115,"Biofuels,Biomass,Buildings,Carbon,Efficiency,Services,Solar,Wind energy",Other:Economic Development,http://www.nortech.org,,Cleveland, Ohio,,
0,Green Energy Ohio,614-985-6131,www.greenenergyohio.org ,Green Energy Ohio,Green Energy Ohio,"7870 Olentangy River Road, Suite 209","Columbus, Ohio",43235,"Biomass,Solar,Wind energy",Trainining and education,http://www.greenenergyohio.org,,Columbus, Ohio,,
0,OTB USA Inc,614-481-6701,www.otb-solar.com ,OTB USA Inc,OTB USA Inc,1871 Suffolk Rd.,"Columbus, Ohio",43221,Solar,Other:Capital Equipment,http://www.otb-solar.com,,Columbus, Ohio,,
0,The Ruhlin Company,330-239-2800,www.ruhlin.com ,The Ruhlin Company,The Ruhlin Company,6931 Ridge Road,"Columbus, Ohio",44275,"Biofuels,Biomass,Carbon,Hydro,Renewable Energy,Services,Solar,Wind energy",Installation,http://www.ruhlin.com,,Columbus, Ohio,,
0,Tipping Point Renewable Energy,NA,NA,Tipping Point Renewable Energy,Tipping Point Renewable Energy,,"Columbus, Ohio",43221,Solar,,http://tipenergy.com/,,Columbus, Ohio,,
0,Hull,NA,NA,Hull,Hull,,"Dublin, Ohio",,"Biomass,Renewable Energy,Solar,Wind energy","US-based company that develop renewable energy projects using solar, biomass, landfill gas, and wind energy technologies.",,,Dublin, Ohio,,
0,"LP Hoying, LLC",(970) 209-4708,www.lphoying.com/ ,"LP Hoying, LLC","LP Hoying, LLC",P.O. Box 258,"Fort Loramie, Ohio",45845-0258,Solar,"Retail, Supplier - PC Power Supplies",http://www.lphoying.com/,,Fort Loramie, Ohio,,
0,Sustainable Energy Works LLC,614-532-5622,www.seworksllc.com ,Sustainable Energy Works LLC,Sustainable Energy Works LLC,106  Short Street,"Gahanna, Ohio",43230,"Buildings,Efficiency,Renewable Energy,Services,Solar",Agriculture; Consulting;Energy audits/weatherization; Investment/finances; Trainining and education,http://www.seworksllc.com,,Gahanna, Ohio,,
0,"Valley Electrical Consolidated, Inc.",330-539-4044,www.vecohio.com ,"Valley Electrical Consolidated, Inc.","Valley Electrical Consolidated, Inc.",977 Tibbetts Wick Road,"Girard, Ohio",44420,"Buildings,Efficiency,Hydro,Renewable Energy,Services,Solar,Wind energy",Consulting;Energy audits/weatherization; Engineering/architectural/design;Installation,http://www.vecohio.com,,Girard, Ohio,,
0,CMC/ BMC Utility Products,513-860-4455,www.cmclugs.com ,CMC/ BMC Utility Products,CMC/ BMC Utility Products,3501 Symmes Road,"Hamilton, Ohio",45015,"Services,Solar,Wind energy",Installation; Maintenance and repair;Manufacturing,http://www.cmclugs.com,,Hamilton, Ohio,,
0,Home Energy Checkup/Commercial Energy Checkup,513-939-9194,www.homeenergycheckup.com ,Home Energy Checkup/Commercial Energy Checkup,Home Energy Checkup/Commercial Energy Checkup,20 High Street Suite 315,"Hamilton, Ohio",45011,"Buildings,Efficiency,Geothermal energy,Renewable Energy,Solar",,http://www.homeenergycheckup.com,,Hamilton, Ohio,,
0,"Engineered Process Systems, Ltd. (EPS, Ltd.)",419-433-7048,www.bestuseofenergy.com ,"Engineered Process Systems, Ltd. (EPS, Ltd.)","Engineered Process Systems, Ltd. (EPS, Ltd.)",PO Box 471,"Huron, Ohio",44839,"Biomass,Efficiency,Geothermal energy,Solar",Consulting; Energy provider: power production; Engineering/architectural/design;Installation;Investment/finances;Maintenance and repair; Retail product sales and distribution,http://www.bestuseofenergy.com,,Huron, Ohio,,
0,Five Star Technologies,NA,NA,Five Star Technologies,Five Star Technologies,,"Independence, Ohio",44131,Solar,"US manufacturer of inks and pastes for the electronics industry; in solar, manufactures silver paste for screen printing PV cells.",,,Independence, Ohio,,
0,"The Renaissance Group, A Conserve First Company",440-256-2800,www.ConserveFirst.com ,"The Renaissance Group, A Conserve First Company","The Renaissance Group, A Conserve First Company",8281 Euclid Chardon Road,"Kirtland, Ohio",44094,"Buildings,Efficiency,Hydro,Renewable Energy,Solar,Wind energy",Agriculture; Consulting;Energy audits/weatherization; Engineering/architectural/design;Installation;Investment/finances;Maintenance and repair;Manufacturing; Research and development;Retail product sales and distribution;Trainining and education,http://www.ConserveFirst.com,,Kirtland, Ohio,,
0,MetoKote Corporation,419-996-7800,www.metokote.com ,MetoKote Corporation,MetoKote Corporation,1340 Neubrecht Road,"Lima, Ohio",45801,Solar,Other:Coatings,http://www.metokote.com,,Lima, Ohio,,
0,Raymond Plumbing & Heating,440-244-5584,NA,Raymond Plumbing & Heating,Raymond Plumbing & Heating,1351 Broadway,"Lorain, Ohio",44052,"Geothermal energy,Solar",Installation; Maintenance and repair,http://raymondplumbing.com,,Lorain, Ohio,,
0,"Energy Technologies, Inc.",419-522-4444,www.ruggedsystems.com ,"Energy Technologies, Inc.","Energy Technologies, Inc.",219 Park Avenue East,"Mansfield, Ohio",44902,"Biomass,Solar,Wind energy",Manufacturing,http://www.ruggedsystems.com,,Mansfield, Ohio,,
0,"Michael Bradley Co.,Inc",800-621-8126,NA,"Michael Bradley Co.,Inc","Michael Bradley Co.,Inc",414 Greene St,"Marietta, Ohio",45750,"Biofuels,Carbon,Geothermal energy,Hydro,Services,Solar,Wind energy",Maintenance and repair; Retail product sales and distribution,http://michaelbradleyco.com,,Marietta, Ohio,,
0,IPS- Industrial Power Systems,419-531-3121,www.IPSContractor.com ,IPS- Industrial Power Systems,IPS- Industrial Power Systems,1650 Indianwood Circle,"Maumee, Ohio",43537,"Biofuels,Biomass,Buildings,Carbon,Efficiency,Hydro,Solar,Vehicles,Wind energy",Engineering/architectural/design;Installation; Maintenance and repair; Other:Construction,http://www.IPSContractor.com,,Maumee, Ohio,,
0,"Four Seasons Windpower, LLC",866-412-8346,www.fswindpower.com ,"Four Seasons Windpower, LLC","Four Seasons Windpower, LLC",1697 Wilbur Road,"Medina, Ohio",44256,"Solar,Wind energy",Retail product sales and distribution,http://www.fswindpower.com,,Medina, Ohio,,
0,North American Coating Laboratories,440-357-7000,www.nacl.com ,North American Coating Laboratories,North American Coating Laboratories,9450 Pineneedle Drive,"Mentor, Ohio",44060,"Services,Solar",Consulting; Engineering/architectural/design; Manufacturing; Research and development;Retail product sales and distribution,http://www.nacl.com,,Mentor, Ohio,,
0,Miamisburg Mound Community Improvement Corp,937-865-4462,www.mound.com ,Miamisburg Mound Community Improvement Corp,Miamisburg Mound Community Improvement Corp,"965 Capstone Dr, Suite 480","Miamisburg, Ohio",45342-6714,"Buildings,Efficiency,Geothermal energy,Services,Solar,Wind energy",Business and legal services; Energy audits/weatherization; Energy provider: power production; Engineering/architectural/design;Installation;Investment/finances; Manufacturing; Research and development; Trainining and education;Other:Economic Development,http://www.mound.com,,Miamisburg, Ohio,,
0,Edison Solar & Wind Ltd,419-499-0000,NA,Edison Solar & Wind Ltd,Edison Solar & Wind Ltd,"11 E. Church St, #57","Milan, Ohio",44846,"Geothermal energy,Solar,Wind energy",Agriculture; Consulting; Energy provider: power production; Engineering/architectural/design;Installation; Retail product sales and distribution,http://edisonsolar.net,,Milan, Ohio,,
0,CIMx Software,513-248-7700,www.cimx.com ,CIMx Software,CIMx Software,1001 Ford Circle,"Milford, Ohio",45150,"Renewable Energy,Services,Solar,Wind energy",Consulting; Manufacturing; Research and development; Trainining and education;Other:Green Factories,http://www.cimx.com,,Milford, Ohio,,
0,Nextronex Energy Systems LLC,NA,www.nextronex.com/default.asp ,Nextronex Energy Systems LLC,Nextronex Energy Systems LLC,4400 Moline Martin Rd,"Millbury, Ohio",43447-9401,"Efficiency,Renewable Energy,Services,Solar",,http://www.nextronex.com/default.asp,,Millbury, Ohio,,
0,Blight-to-Bright,NA,NA,Blight-to-Bright,Blight-to-Bright,,"Mount Vernon, Ohio",,Solar,,http://blight2bright.com/index.htm,,Mount Vernon, Ohio,,
0,Replex Plastics,740-397-5535,www.replex.com ,Replex Plastics,Replex Plastics,11 Mount Vernon Ave,"Mount Vernon, Ohio",43050,"Services,Solar",Manufacturing; Research and development,http://www.replex.com,,Mount Vernon, Ohio,,
0,SunLight Energy Systems,330-832-3114,NA,SunLight Energy Systems,SunLight Energy Systems,"955 Manchester Ave., SW","North Lawrence, Ohio",44666-9438,Solar,Retailer - Siemens SolarPro Dealer,http://sunlightenergysystems.com/Welcomea.html,,North Lawrence, Ohio,,
0,GreenField Solar Corp.,216-535-9200,www.greenfieldsolar.com ,GreenField Solar Corp.,GreenField Solar Corp.,7881 Root Road,"North Ridgeville, Ohio",44039,Solar,Installation; Manufacturing; Research and development,http://www.greenfieldsolar.com,,North Ridgeville, Ohio,,
0,Castle Energy Services,440-390-1340,www.castleohio.com ,Castle Energy Services,Castle Energy Services,8306 Ridge Rd,"North Royalton, Ohio",44133,"Geothermal energy,Solar,Wind energy",Consulting; Installation;Investment/finances;Maintenance and repair; Retail product sales and distribution,http://www.castleohio.com,,North Royalton, Ohio,,
0,"Story Equipment Sales, Inc.",440-786-8883,www.storyequipment.com ,"Story Equipment Sales, Inc.","Story Equipment Sales, Inc.",7710 First Place-Suite G,"Oakwood Village, Ohio",44146,"Services,Solar",Agriculture; Engineering/architectural/design; Maintenance and repair; Trainining and education,http://www.storyequipment.com,,Oakwood Village, Ohio,,
0,GLASSTECH INC,NA,www.glasstech.com/default.aspx ,GLASSTECH INC,GLASSTECH INC,,"Perrysburg, Ohio",43551,"Buildings,Efficiency,Services,Solar,Vehicles",,http://www.glasstech.com/default.aspx,,Perrysburg, Ohio,,
0,McCarthy Systems Co.,330-549-0671,NA,McCarthy Systems Co.,McCarthy Systems Co.,121 E. Calla Road,"Poland, Ohio",44514,"Buildings,Efficiency,Solar",Business and legal services;Consulting; Energy provider: power production; Engineering/architectural/design;Installation;Investment/finances;Maintenance and repair;Manufacturing;,http://mccarthysystems.com,,Poland, Ohio,,
0,Bold Alternatives,440-318-4131,www.BoldAlternatives.com ,Bold Alternatives,Bold Alternatives,2708 Dryden Road,"Shaker Heights, Ohio",44122,"Solar,Wind energy",Consulting; Energy provider: power production; Engineering/architectural/design;Installation; Maintenance and repair; Retail product sales and distribution;Trainining and education,http://www.BoldAlternatives.com,,Shaker Heights, Ohio,,
0,"ADI Wind, llc.",440-213-6976,www.adiwind.com ,"ADI Wind, llc.","ADI Wind, llc.",4686 French Creek Road,"Sheffield Village, Ohio",44054,"Renewable Energy,Solar,Wind energy",Agriculture; Consulting;Energy audits/weatherization;Energy provider: energy transmission and distribution;Energy provider: power production; Engineering/architectural/design; Manufacturing;Raw materials/extraction; Research and development,http://www.adiwind.com,,Sheffield Village, Ohio,,
0,Sheffield Metals International,800-283-5262,www.sheffieldmetals.com ,Sheffield Metals International,Sheffield Metals International,5467 Evergreen Parkway,"Sheffield Village, Ohio",44054,"Buildings,Efficiency,Solar",Agriculture; Consulting; Manufacturing; Retail product sales and distribution;Trainining and education,http://www.sheffieldmetals.com,,Sheffield Village, Ohio,,
0,Energy Optimizers USA,937-877-1919,www.energyoptimizersusa.com ,Energy Optimizers USA,Energy Optimizers USA,6 S. 3rd Street,"Tipp City, Ohio",45371,"Biomass,Carbon,Geothermal energy,Services,Solar,Wind energy",Business and legal services;Consulting;Energy audits/weatherization; Engineering/architectural/design;Installation;Investment/finances; Trainining and education,http://www.energyoptimizersusa.com,,Tipp City, Ohio,,
0,"Ohio Green Wind, LLC",440-357-7000,www.nacl.com ,"Ohio Green Wind, LLC","Ohio Green Wind, LLC",5126 S County Road 25A,"Tipp City, Ohio",45371,"Efficiency,Geothermal energy,Hydro,Renewable Energy,Solar,Wind energy",Consulting; Engineering/architectural/design; Manufacturing; Research and development;Retail product sales and distribution,http://www.nacl.com,,Tipp City, Ohio,,
0,Advanced Distributed Generation LLC,419-725-3401,www.advanced-dg.com ,Advanced Distributed Generation LLC,Advanced Distributed Generation LLC,"200 West Scott Park Drive, MS # 410","Toledo, Ohio",43607,Solar,Agriculture; Consulting; Installation; Maintenance and repair; Retail product sales and distribution,http://www.advanced-dg.com,,Toledo, Ohio,,
0,Bottomline Energy Solutions LLC,866-950-2523,www.bottomlinees.com ,Bottomline Energy Solutions LLC,Bottomline Energy Solutions LLC,2229 Apsley Blvd,"Toledo, Ohio",43617,"Buildings,Efficiency,Geothermal energy,Solar,Wind energy",Consulting;Energy audits/weatherization; Energy provider: wholesale; Installation;Investment/finances; Retail product sales and distribution;Trainining and education,http://www.bottomlinees.com,,Toledo, Ohio,,
0,Buckeye Silicon,NA,www.sphereenergy.net ,Buckeye Silicon,Buckeye Silicon,2600 Dorr Street - Suite 1070,"Toledo, Ohio",43606,"Renewable Energy,Services,Solar",Consulting; Manufacturing;Raw materials/extraction;Refining;Research and development,http://www.sphereenergy.net,,Toledo, Ohio,,
0,Turbo Dynamics,419-382-7287,www.turbodradial.com ,Turbo Dynamics,Turbo Dynamics,3235 River rd.,"Toledo, Ohio",43614,"Biomass,Buildings,Efficiency,Renewable Energy,Services,Solar",Agriculture; Consulting;Energy audits/weatherization; Engineering/architectural/design;Installation; Maintenance and repair;Manufacturing; Research and development;Retail product sales and distribution;Trainining and education,http://www.turbodradial.com,,Toledo, Ohio,,
0,"Dancraft Construction, EnergyWize Div.",937-335-3868,www.EnergyWizeNow.com ,"Dancraft Construction, EnergyWize Div.","Dancraft Construction, EnergyWize Div.",702 Old Newton Pike,"Troy, Ohio",45373,"Buildings,Efficiency,Geothermal energy,Solar",Agriculture; Consulting;Energy audits/weatherization; Energy provider: power production; Engineering/architectural/design;Installation;Investment/finances;Maintenance and repair; Retail product sales and distribution;Trainining and education,http://www.EnergyWizeNow.com,,Troy, Ohio,,
0,Inspiramental Co.,937-239-3895,www.inspiramental.com ,Inspiramental Co.,Inspiramental Co.,9107 Coletown Lightsville Rd.,"Union City, Ohio",9107 Coletown Lightsville Rd.,"Buildings,Efficiency,Hydro,Services,Solar",Agriculture; Consulting;Energy audits/weatherization;Energy provider: energy transmission and distribution;Energy provider: power production; Installation; Maintenance and repair,http://www.inspiramental.com,,Union City, Ohio,,
0,"Fetz Plumbing, Heating & Air Conditioning",937-652-1136,NA,"Fetz Plumbing, Heating & Air Conditioning","Fetz Plumbing, Heating & Air Conditioning",115 Washington Street - P.O. Box 516,"Urbana, Ohio",43078,"Efficiency,Geothermal energy,Services,Solar",Installation; Maintenance and repair,http://fetzphc.com,,Urbana, Ohio,,
0,Advanced Solar LLC.,614-901-4035,NA,Advanced Solar LLC.,Advanced Solar LLC.,139 E. Lincoln Street,"Westerville, Ohio",43081,"Geothermal energy,Renewable Energy,Solar,Wind energy",Agriculture; Consulting; Engineering/architectural/design;Installation; Maintenance and repair,http://advancedsolaroh.com,,Westerville, Ohio,,
0,M-7 Technologies,NA,www.m7tek.com ,M-7 Technologies,M-7 Technologies,1019 Ohio Works Drive,"Youngstown, Ohio",44510,"Buildings,Efficiency,Services,Solar,Wind energy",Energy audits/weatherization; Engineering/architectural/design; Maintenance and repair;Manufacturing; Refining;Research and development; Trainining and education,http://www.m7tek.com,,Youngstown, Ohio,,
0,Northern States Metals Company,330-799-1855,NA,Northern States Metals Company,Northern States Metals Company,3207 Innovation Place,"Youngstown, Ohio",44509,Solar,Manufacturing,http://extrusions.com,,Youngstown, Ohio,,
0,"Solar FlexRac - product of NSM, inc.",330-799-1855,www.solarflexrack.com ,"Solar FlexRac - product of NSM, inc.","Solar FlexRac - product of NSM, inc.",3207 Innovation Place,"Youngstown, Ohio",44509,Solar,Consulting; Installation; Manufacturing; Research and development,http://www.solarflexrack.com,,Youngstown, Ohio,,
0,Sun City Solar Energy,(918) 494-0886,www.suncityenergy.com/ ,Sun City Solar Energy,Sun City Solar Energy,20227 S. 137th E. Ave.,"Bixby, Oklahoma",74008,Solar,Solar energy systems,http://www.suncityenergy.com/,,Bixby, Oklahoma,,
0,Commercial Solar Ventures,NA,NA,Commercial Solar Ventures,Commercial Solar Ventures,,"Portland, Oregon",97205,Solar,Portland based company that specializes in commercial scale solar installations throughout Oregon.,,,Portland, Oregon,,
0,Microfield Group Inc,NA,NA,Microfield Group Inc,Microfield Group Inc,,"Portland, Oregon",97209,"Solar,Wind energy","US-based contractor and integrator of wind, solar, and other distributed power system infrastructures.",,,Portland, Oregon,,
0,"Stoel Rives, LLP",503-224-3380,www.lawofrenewableenergy.com ,"Stoel Rives, LLP","Stoel Rives, LLP","900 SW Fifth Avenue, Suite 2600","Portland, Oregon",97204,"Biofuels,Biomass,Geothermal energy,Hydro,Services,Solar,Wind energy,Bioenergy,Ocean,Renewable energy",Legal Counsel to Renewable Energy Project Developers,http://www.lawofrenewableenergy.com,,Portland, Oregon,,
0,Lighthouse Solar Indian Valley,(215) 541-5464,www.lighthousesolar.com ,Lighthouse Solar Indian Valley,Lighthouse Solar Indian Valley,5062 McLean Station Road,"Green Lane, PA",18054,Solar,,http://www.lighthousesolar.com,,Green Lane, PA,,
0,Akrion Inc,NA,NA,Akrion Inc,Akrion Inc,,"Allentown, Pennsylvania",18106,Solar,US-based manufacturer of surface preparation equipment for semiconductor industry; offers also to solar.,,,Allentown, Pennsylvania,,
0,Exolis Energy,610-260-1449,NA,Exolis Energy,Exolis Energy,"350 Sentry Parkway, Building 630","Blue Bell, Pennsylvania",19422,Solar,Esco with DG,,Northeast - NY NJ CT PA Area,Blue Bell, Pennsylvania,,
0,Epuron LLC,NA,NA,Epuron LLC,Epuron LLC,,"Philadelphia, Pennsylvania",19103,Solar,Epuron LLC is the US subsidiary of Germany solar developer Conergy.,,,Philadelphia, Pennsylvania,,
0,Plextronics,NA,www.plextronics.com/index.aspx ,Plextronics,Plextronics,2180 William Pitt Way,"Pittsburgh, Pennsylvania",15238,Solar,Organic solar cells and OLED's,http://www.plextronics.com/index.aspx,Northeast - NY NJ CT PA Area,Pittsburgh, Pennsylvania,,
0,Plextronics Inc,NA,NA,Plextronics Inc,Plextronics Inc,,"Pittsburgh, Pennsylvania",15238,Solar,"US developer of printed electronic devices such as OLED displays and lighting, organic polymer solar cells and plastic circuitry.",,,Pittsburgh, Pennsylvania,,
0,Solarity,NA,www.innovationpark.psu.edu/ ,Solarity,Solarity,"200 Innovation Blvd
Suite 260A","State College, Pennsylvania",16801,Solar,,http://www.innovationpark.psu.edu/,Northeast - NY NJ CT PA Area,State College, Pennsylvania,,
0,SolarWrights Inc,NA,NA,SolarWrights Inc,SolarWrights Inc,,"Stonington, Rhode Island",6378,"Renewable Energy,Solar,Wind energy",Rhode Island-based private company specialising in the design and installation of solar and wind energy systems that merged with Solar Works to form Alteris Renewables.,,,Stonington, Rhode Island,,
0,Solar Wind,NA,NA,Solar Wind,Solar Wind,,"Krasnodar, Romania",350000,"Solar,Wind energy",Russia-based PV product manufacturer. Solar Wind manufactures solar modules and cells.,,,Krasnodar, Romania,,
0,Solar Pathfinder,NA,www.solarpathfinder.com/ ,Solar Pathfinder,Solar Pathfinder,3953 Marsh Creek Road,"Linden, Tennessee",37096,Solar,Analysis software for siting,http://www.solarpathfinder.com/,,Linden, Tennessee,,
0,AstroWatt,NA,NA,AstroWatt,AstroWatt,,"Austin, Texas",,Solar,Texas-based venture backed company developing a proprietary solar cell technology.,,,Austin, Texas,,
0,Celestial Power,NA,NA,Celestial Power,Celestial Power,1012 Hermitage Drive,"Austin, Texas",78753,Solar,Solar energy contractor,http://celestialpower.biz/,Texas Area,Austin, Texas,,
0,Entero Energy,NA,www.enteroenergy.com/ ,Entero Energy,Entero Energy,823 Congress Avenue,"Austin, Texas",78701,Solar,Design and develop renewable energy facilities with a focus on solar,http://www.enteroenergy.com/,Texas Area,Austin, Texas,,
0,FTL Solar,NA,NA,FTL Solar,FTL Solar,,"Austin, Texas",TX 78701,Solar,"FTL Solar develops lightweight, flexible tensile structures embedded with thin-film solar cells.",,,Austin, Texas,,
0,HelioVolt Inc,NA,www.heliovolt.net/ ,HelioVolt Inc,HelioVolt Inc,8201 E. Riverside Dr,"Austin, Texas",78744,Solar,Thin-film solar panel producer,http://www.heliovolt.net/,Texas Area,Austin, Texas,,
0,ImagineSolar,(512) 443-5725,NA,ImagineSolar,ImagineSolar,4000 Caven Road,"Austin, Texas",78744,"Renewable Energy,Services,Solar","Solar training courses, Solar installation training, Online solar classes, Workforce training, Corporate consulting - Solar projects, Solar sales, Solar marketing, Solar business development, Solar policy, Solar advocacy, Solar government relations",http://imaginesolar.com/,Texas Area,Austin, Texas,,
0,Meridian Energy Systems Inc,NA,www.meridiansolar.com/ ,Meridian Energy Systems Inc,Meridian Energy Systems Inc,4109 Todd Lane,"Austin, Texas",78744,Solar,"Design, sales, installation and service of stand-alone and grid-tied PV applications",http://www.meridiansolar.com/,Texas Area,Austin, Texas,,
0,Pioneer Green Energy,NA,NA,Pioneer Green Energy,Pioneer Green Energy,,"Austin, Texas",,"Renewable Energy,Solar,Wind energy",,,,Austin, Texas,,
0,Solar Community,NA,www.solarcommunity.net/ ,Solar Community,Solar Community,4704 E Cesar Chavez St,"Austin, Texas",78702,Solar,Solar sales and installation,http://www.solarcommunity.net/,Texas Area,Austin, Texas,,
0,Sunergie,NA,www.sunergie.com/ ,Sunergie,Sunergie,405 Academy Drive,"Austin, Texas",78704,Solar,"Solar thermal energy for industrial and commercial applications, also bioenergy",http://www.sunergie.com/,Texas Area,Austin, Texas,,
0,Teksun PV Manufacturing Inc,NA,www.teksunpv.com/ ,Teksun PV Manufacturing Inc,Teksun PV Manufacturing Inc,401 Congress Ave,"Austin, Texas",78701,Solar,Plan to manufacture large scale PV panels for utility scale solar power parks,http://www.teksunpv.com/,Texas Area,Austin, Texas,,
0,Texas Solar Power Company,NA,www.txspc.com/ ,Texas Solar Power Company,Texas Solar Power Company,1703 W Koenig Ln,"Austin, Texas",78756,Solar,"Design, sales and installation of renewable energy equipment and systems",http://www.txspc.com/,Texas Area,Austin, Texas,,
0,ThermalSoul,NA,NA,ThermalSoul,ThermalSoul,,"Austin, Texas",78746,Solar,"Austin, Texas-based parabolic trough-based solar thermal electrical generation systems maker.",,,Austin, Texas,,
0,Verde Energy Inc,NA,NA,Verde Energy Inc,Verde Energy Inc,,"Austin, Texas",78763-5744,"Renewable Energy,Solar,Wind energy","Provides a free online service to match customers interested in small-scale wind, solar and other renewable energy installations with service providers.",,,Austin, Texas,,
0,Digital Gas Inc,NA,NA,Digital Gas Inc,Digital Gas Inc,,"Dallas, Texas",,Solar,"Company with a number of subsidiaries involved in mining, solar power, waste burning, energy saving, farming and electronics.",,,Dallas, Texas,,
0,FAS Technologies LLC,NA,NA,FAS Technologies LLC,FAS Technologies LLC,,"Dallas, Texas",75238,Solar,"US-based manufacturer of meterology and automation systems for semiconductor, flat panel display, medical and solar industries.",,,Dallas, Texas,,
0,Tri Global Energy LLC,NA,NA,Tri Global Energy LLC,Tri Global Energy LLC,,"Dallas, Texas",75248,"Services,Solar,Wind energy","Texas-based developer that offers a full range of services in planning, design, project financing, and construction for solar and large community-based wind projects.",,,Dallas, Texas,,
0,Acro Solar Lasers,NA,NA,Acro Solar Lasers,Acro Solar Lasers,,"El Paso, Texas",79936,Solar,Makes solar water heating devices based on parabolic dish concentrators.,,,El Paso, Texas,,
0,GreenHunter Energy Inc,NA,NA,GreenHunter Energy Inc,GreenHunter Energy Inc,,"Grapevine, Texas",76051,"Biofuels,Renewable Energy,Solar,Wind energy","Renewable energy holding company specialising in wind, biofuels and solar projects.",,,Grapevine, Texas,,
0,American Photovoltaics,NA,NA,American Photovoltaics,American Photovoltaics,,"Houston, Texas",77002,Solar,Will manufacture thin-film solar modules,http://apv-us.com/,Texas Area,Houston, Texas,,
0,C-Voltaics,832-421-1482,[www.c-voltaics.com ] ,C-Voltaics,C-Voltaics,"3575 Cullen Blvd, 617 Science and Research Building 1,","Houston, Texas",77204-5005,Solar,Novel manufacturing process for solar cells with initial focus on OPV,http://www.c-voltaics.com,Texas Area,Houston, Texas,,
0,Cavallo Energy,NA,NA,Cavallo Energy,Cavallo Energy,,"Houston, Texas",77027,"Services,Solar","Houston-based energy management, finance procurement and engineering company. The firm offers engineering services to solar projects.",,,Houston, Texas,,
0,Cogeneration Technologies,NA,NA,Cogeneration Technologies,Cogeneration Technologies,,"Houston, Texas",77070,"Biomass,Solar","Provides efficient systems in the fields of demand management, biofuel, biomass and solar CHP systems.",,,Houston, Texas,,
0,Direct Energy Inc.,NA,www.directenergy.com/ ,Direct Energy Inc.,Direct Energy Inc.,"12 Greenway Plaza, Suite 600","Houston, Texas",77046,"Services,Renewable Energy,Solar,Wind energy",Green Power Marketer,http://www.directenergy.com/,Texas Area,Houston, Texas,,
0,EcoGeneration Solutions LLC,NA,NA,EcoGeneration Solutions LLC,EcoGeneration Solutions LLC,,"Houston, Texas",77070,Solar,Holds several technology companies in the fields of cogeneration and solar energy systems.,,,Houston, Texas,,
0,Ecowatt Design LLC,NA,www.ecowattdesign.com/ ,Ecowatt Design LLC,Ecowatt Design LLC,10900 Northwest Fwy,"Houston, Texas",77092,Solar,Solar power system installation for residential & commercial customers,http://www.ecowattdesign.com/,Texas Area,Houston, Texas,,
0,Standard Renewable Energy,877.923.7733,www.sre3.com/ ,Standard Renewable Energy,Standard Renewable Energy,"55 Waugh Drive, Suite 800","Houston, Texas",77007,Solar,Solar electric systems,http://www.sre3.com/,Texas Area,Houston, Texas,,
0,TRC Advanced Technologies Inc,NA,www.trcat.com/ ,TRC Advanced Technologies Inc,TRC Advanced Technologies Inc,8700 Commerce Park,"Houston, Texas",77036,Solar,Remote power PV systems,http://www.trcat.com/,Texas Area,Houston, Texas,,
0,"21-Century Silicon, Inc.",972-591-0713,www.21-CenturySilicon.com/ ,"21-Century Silicon, Inc.","21-Century Silicon, Inc.","1681 Firman Drive, Suite 103","Richardson, Texas",75081-1881,Solar,Solar Grade Silicon >99.9999% purity,http://www.21-CenturySilicon.com/,Texas Area,Richardson, Texas,,
0,Sunrise Solar Corp,NA,NA,Sunrise Solar Corp,Sunrise Solar Corp,,"San Antonio, Texas",78249,Solar,"Sunrise Solar intends to commercialise and distribute solar energy technologies and equipment, in addition to providing its core consultancy service to advise organisations on how to procure alternative energy contracts with public utilities.",,,San Antonio, Texas,,
0,MicroPower Global,NA,NA,MicroPower Global,MicroPower Global,,"San Marcos, Texas",78666-4616,Solar,"Privately-held owner of semiconductor-based heat conversion to electricity technology for use in waste-heat, solar thermal and other uses.",,,San Marcos, Texas,,
0,Ubiquitous Technologies,NA,NA,Ubiquitous Technologies,Ubiquitous Technologies,,"Victoria, Texas",77903,Solar,Ubiquitous Technologies is a nano technology solar energy R&D and commercialization company.,,,Victoria, Texas,,
0,Solar Unlimited USA,435-867-9876,NA,Solar Unlimited USA,Solar Unlimited USA,2353 Park Ave.,"Cedar City, Utah",84721,Solar,Solar energy systems,http://solarunlimited.net/,Rockies Area,Cedar City, Utah,,
0,Tasco Engineering Inc,NA,NA,Tasco Engineering Inc,Tasco Engineering Inc,,"Lehi, Utah",84043,"Hydro,Solar,Wind energy","Power engineering firm with interests in wind project development, goethermal, hydroelectric and solar power generation.",,,Lehi, Utah,,
0,Access Solar Energy LLC,NA,NA,Access Solar Energy LLC,Access Solar Energy LLC,,"Park CIty, Utah",84060,"Renewable Energy,Solar","Utah-based developers of renewable energy projects, primarily focused on the development utility scale solar power facilities.",,,Park CIty, Utah,,
0,Green Joules,NA,NA,Green Joules,Green Joules,,"Park City, Utah",80460,"Solar,Wind energy","Project developer focussing on wind farms larger than 100MW, and interested in pursuing commercial-scale solar power projects.",,,Park City, Utah,,
0,Heliocentric,(801) 453-9434,NA,Heliocentric,Heliocentric,12401 East Wilderness Rd.,"Salt Lake City, Utah",84121,Solar,Renewable energy products and services,http://heliocentric.org/,,Salt Lake City, Utah,,
0,Romeric,NA,NA,Romeric,Romeric,,"Salt Lake City, Utah",84070,"Services,Solar",Utah-based provider of software products and integration services for factory automation. The firm provides these services to solar projects.,,,Salt Lake City, Utah,,
0,Wasatch Solar,888-974-5535,NA,Wasatch Solar,Wasatch Solar,4417 S 2950 E,"Salt Lake City, Utah",84124,Solar,Solar,http://wasatchsolar.com,,Salt Lake City, Utah,,
0,Bee Cool Inc,NA,NA,Bee Cool Inc,Bee Cool Inc,,"North Ferrisburg, Vermont",Vt 05473,Solar,"Producer of polysilicon solar panels and solar trackers, and solar battery chargers.",,,North Ferrisburg, Vermont,,
0,GroSolar,NA,www.grosolar.com ,GroSolar,GroSolar,601 Old River Road Suite 3,"White River Junction, Vermont",5001,Solar,,http://www.grosolar.com,,White River Junction, Vermont,,
0,AES Corporation,NA,NA,AES Corporation,AES Corporation,,"Arlington, Virginia",22203,"Biomass,Carbon,Solar,Wind energy","Virginia-based company that generates and distributes electrical power. The company has investments in various wind, biomass, carbon offset, solar and power storage projects.",,,Arlington, Virginia,,
0,SkyBuilt Power,NA,NA,SkyBuilt Power,SkyBuilt Power,,"Arlington, Virginia",22207,"Hydro,Renewable Energy,Solar,Wind energy","US-based renewable energy system integrator such as solar, wind, fuel cells, and micro-hydro power.",,,Arlington, Virginia,,
0,Sol Sage Energy,NA,NA,Sol Sage Energy,Sol Sage Energy,,"Charlottesville, Virginia",22902,Solar,"Sells solar electricity as well as owns, operates, and maintains solar energy systems.",,,Charlottesville, Virginia,,
0,Solar Panels Plus LLC,NA,NA,Solar Panels Plus LLC,Solar Panels Plus LLC,,"Chesapeake, Virginia",23320,Solar,Solar Panels Plus LLC distributes solar energy products.,,,Chesapeake, Virginia,,
0,Radiant Apparatus,NA,NA,Radiant Apparatus,Radiant Apparatus,,"Fairfax, Virginia",22038-3333,Solar,"Radiant Apparatus develops multi-functional, portable solar energy-harnessing systems, as well as potable water systems and emergency shelters.",,,Fairfax, Virginia,,
0,Triton Technologies Inc,NA,NA,Triton Technologies Inc,Triton Technologies Inc,,"Reston, Virginia",20191,"Hydro,Solar",Technology firm with activities in hydro microturbines and ethanol production. Merged with Solar Night Industries in March 2006.,,,Reston, Virginia,,
0,Clarian Power,NA,www.clariantechnologies.com/ma ,Clarian Power,Clarian Power,,"Seattle, Washington",,Solar,,http://www.clariantechnologies.com/main/page_home.html,,Seattle, Washington,,
0,Tenderland Power,NA,NA,Tenderland Power,Tenderland Power,,"Seattle, Washington",98101,"Biomass,Hydro,Renewable Energy,Solar,Wind energy","Utility which provides electricity, generated from renewable energy sources such as wind, solar, biomass and hydroelectric.",,,Seattle, Washington,,
0,Tuusso Energy,NA,NA,Tuusso Energy,Tuusso Energy,,"Seattle, Washington",98122,Solar,Washington-based developer and operator of utility scale solar plants.,,,Seattle, Washington,,
0,Alpha Technologies,NA,NA,Alpha Technologies,Alpha Technologies,,"Bellingham, Washington State",98226,"Services,Solar","Bellingham (WA)-based firm offering, among other products, power conversion products designed specifically for the PV market, plus installation services for solar systems.",,,Bellingham, Washington State,,
0,PowerSat Corporation,NA,NA,PowerSat Corporation,PowerSat Corporation,,"Everett, Washington State",98204,Solar,Washington State-based startup focused on space-based solar power development.,,,Everett, Washington State,,
0,JX Crystals Inc,NA,NA,JX Crystals Inc,JX Crystals Inc,,"Issaquah, Washington State",98027,Solar,JX Crystals designs and manufactures thermophotovoltaic gallium-antimonide cells for solar applications.,,,Issaquah, Washington State,,
0,Heart Interface Corporation,NA,NA,Heart Interface Corporation,Heart Interface Corporation,,"Kent, Washington State",98032,"Solar,Vehicles","Manufacturers of power inverters for remoted solar powered residences, vehicles and marine applications. Bought by Xantrex in 2000.",,,Kent, Washington State,,
0,Teanaway Solar Reserve,NA,NA,Teanaway Solar Reserve,Teanaway Solar Reserve,,"Teanaway, Washington State",,Solar,Washington State-based privately-held developer of the Teanaway Solar Reserve PV plant project.,,,Teanaway, Washington State,,
0,Magnatek Inc,NA,NA,Magnatek Inc,Magnatek Inc,,"Menomonee Falls, Wisconsin",53051,"Solar,Wind energy",Wisconsin-based manufacturer of utility-scale wind and solar inverters.,,,Menomonee Falls, Wisconsin,,
0,Able Energy Co.,"-15.284185114076°, -95.625° Show Map",www.weknowsolar.com ,Able Energy Co.,Able Energy Co.,265 Mound View Rd.,"River Falls, Wisconsin",54022,"Renewable Energy,Services,Solar,Vehicles",Solar EPC Contractor,http://www.weknowsolar.com,,River Falls, Wisconsin,,
0,Interias Solar Energy,888-907-5667,www.interias.com ,Interias Solar Energy,Interias Solar Energy,,Across the Us,,Solar,Solar Photovoltaics,https://www.interias.com,,Across the Us,,,
0,Havasu Solar Electric,NA,NA,Havasu Solar Electric,Havasu Solar Electric,,Arizona,86401,Solar,Arizona-based electric contractors in the solar industry.,,,Arizona,,,
0,Sundial Energy Inc,NA,NA,Sundial Energy Inc,Sundial Energy Inc,,Arizona,,Solar,Integrates UniSolar a-Si laminates with MasterCraft metals to produce products for building-integrated photovoltaics (BIPV).,,,Arizona,,,
0,Tailored Materials Corp,NA,NA,Tailored Materials Corp,Tailored Materials Corp,,Arizona,85706,"Carbon,Solar",,,,Arizona,,,
0,Carlson Solar,NA,NA,Carlson Solar,Carlson Solar,,California,,Solar,Carlson Solar is an installer of residential and small-scale commercial photovoltaic systems.,,,California,,,
0,Dale Renewables Consulting,NA,NA,Dale Renewables Consulting,Dale Renewables Consulting,,California,,Solar,"PV marketing and installation firm, merged with Solar Power Inc in January 2007.",,,California,,,
0,Discover Power,NA,NA,Discover Power,Discover Power,,California,92109,"Renewable Energy,Solar",Distributor of solar electric and other renewable energy products.,,,California,,,
0,LightManufacturing,415 796-6475,www.lightmanufacturingsystems. ,LightManufacturing,LightManufacturing,855 4th Street,California,93449,Solar,"heliostat, helisotats, sun trackers, solar thermal manufacturing systems.",http://www.lightmanufacturingsystems.com,Southern CA Area,California,,,
0,Mythos Solar Energy Inc,NA,NA,Mythos Solar Energy Inc,Mythos Solar Energy Inc,,California,94402,"Renewable Energy,Solar","Mythos, renewable energy consultant, develops efficient energy solutions combining solar power with other technologies.",,,California,,,
0,Palo Alto Solar,NA,NA,Palo Alto Solar,Palo Alto Solar,,California,,Solar,PV system installer acquired by SolarCity in Semptember 2006.,,,California,,,
0,SPG Holdings,NA,NA,SPG Holdings,SPG Holdings,,California,,Solar,California-based solar holding company.,,,California,,,
0,Solar Project Solutions,NA,NA,Solar Project Solutions,Solar Project Solutions,,California,,Solar,US-based JV to build solar-power plants in California.,,,California,,,
0,Solargen Energy LLC,NA,NA,Solargen Energy LLC,Solargen Energy LLC,,California,CA 95014,Solar,California-based Solargen is developing a thin film solar farm with a planned capacity of 250MW.,,,California,,,
0,Sungevity,NA,NA,Sungevity,Sungevity,,California,,Solar,California-based start-up which sells PV products direct to consumers and installs solar systems.,,,California,,,
0,Sunpower Systems Inc,NA,NA,Sunpower Systems Inc,Sunpower Systems Inc,,California,CA 91303,Solar,Sunpower Systems Inc manufacturers and markets the first fully integrated patented solar charged cellular phone battery.,,,California,,,
0,Unichem Industries Inc,NA,NA,Unichem Industries Inc,Unichem Industries Inc,,California,92673,Solar,Unichem produces high resolution screen printing equipment for crystalline silicon solar cell production.,,,California,,,
0,Westlands Water District,NA,NA,Westlands Water District,Westlands Water District,,California,,Solar,Water district in central California which administers a large area of land well-suited for solar project development.,,,California,,,
0,Green Solar Finance,NA,NA,Green Solar Finance,Green Solar Finance,,Connecticut,,Solar,Connecticut-based arranger of financing for clients of solar project developers.,,,Connecticut,,,
0,Sunhydro,NA,NA,Sunhydro,Sunhydro,,Connecticut,,"Hydro,Hydrogen,Solar",Connecticut-based chain of privately funded fueling stations that provide hydrogen to fuel cell cars. The company aims to produce hydrogen on site using solar and water.,,,Connecticut,,,
0,GE Solar Power,NA,NA,GE Solar Power,GE Solar Power,,Delaware,,Solar,,,,Delaware,,,
0,Unitil Corporation,NA,NA,Unitil Corporation,Unitil Corporation,,Hampton,03842-1720,"Renewable Energy,Solar,Wind energy",New Hampshire-based public utility specializing in the retail distribution of electricity and natural gas. Their main renewable energy focus is wind and solar projects.,,,Hampton,,,
0,US Solar Holdings LLC,NA,NA,US Solar Holdings LLC,US Solar Holdings LLC,,Idaho,,Solar,US Solar Holdings is a developer of utility-scale solar energy projects.,,,Idaho,,,
0,Aditya Solar Power Industries,NA,NA,Aditya Solar Power Industries,Aditya Solar Power Industries,,India,,Solar,Bangalore-based solar project developer.,,,India,,,
0,MSM Solar India,NA,NA,MSM Solar India,MSM Solar India,,India,,Solar,JV company to develop solar projects.,,,India,,,
0,Punj Lloyd Delta Renewables,NA,NA,Punj Lloyd Delta Renewables,Punj Lloyd Delta Renewables,,India,,Solar,India-based JV will develop engineer and execute PV and solar thermal projects,,,India,,,
0,Seven Seas Energy LLC,NA,NA,Seven Seas Energy LLC,Seven Seas Energy LLC,,Maryland,21401,Solar,Maryland-based solar integration company.,,,Maryland,,,
0,Encap Development LLC,NA,NA,Encap Development LLC,Encap Development LLC,,Massachusetts,17200,"Efficiency,Renewable Energy,Services,Solar",,,,Massachusetts,,,
0,Legend Investment Corp,NA,NA,Legend Investment Corp,Legend Investment Corp,,Michigan,48105,Solar,"Investment company, which acquired the PV business of GiraSolar in early 2006 and plans to change its name to GiraSolar.",,,Michigan,,,
0,Phoenix American Rooftop Solar Technologies,NA,NA,Phoenix American Rooftop Solar Technologies,Phoenix American Rooftop Solar Technologies,,Michigan,48168,Solar,Manufacturer of solar power systems.,,,Michigan,,,
0,MA Mortenson,NA,NA,MA Mortenson,MA Mortenson,,Minnesota,55440-0710,"Solar,Wind energy",Construction and building firm active in the installation of wind and solar farms.,,,Minnesota,,,
0,Westwood Renewables LLC,NA,NA,Westwood Renewables LLC,Westwood Renewables LLC,,Minnesota,55344,Solar,"Minnesota-based private company specializing in solar electric design, engineering and education.",,,Minnesota,,,
0,Sunwheel Energy Partners,NA,NA,Sunwheel Energy Partners,Sunwheel Energy Partners,,Missouri,,Solar,Missouri-based solar systems installer.,,,Missouri,,,
0,GeoGenix,NA,NA,GeoGenix,GeoGenix,,New Jersey,NJ 07760,Solar,US-based solar energy company.,,,New Jersey,,,
0,MSM Industries Inc,NA,NA,MSM Industries Inc,MSM Industries Inc,,New Jersey,8807,Solar,New Jersey-based solar company.,,,New Jersey,,,
0,New Jersey Renewable Energy Program,NA,NA,New Jersey Renewable Energy Program,New Jersey Renewable Energy Program,,New Jersey,,"Renewable Energy,Solar,Wind energy","New Jersey public body providing assistance to renewable energy initiatives in the state, predominantly in the solar, wind and biofuel arena.",,,New Jersey,,,
0,SolarWorks NJ,NA,NA,SolarWorks NJ,SolarWorks NJ,,New Jersey,,"Renewable Energy,Solar","SolarWorks NJ, LLC, a provider of turnkey solar electricity installations and renewable energy solutions.",,,New Jersey,,,
0,MSM Energy Holdings,NA,NA,MSM Energy Holdings,MSM Energy Holdings,,New Jersey 08807,,Solar,US-based solar power deveoper and systems integrator,,,New Jersey 08807,,,
0,Enterprise Solar Solutions,NA,NA,Enterprise Solar Solutions,Enterprise Solar Solutions,,New York,,Solar,New York-based company that specializes in commercial solar photovoltaic applications for businesses.,,,New York,,,
0,Inverters Unlimited Inc,NA,NA,Inverters Unlimited Inc,Inverters Unlimited Inc,,New York,12205,Solar,US-based manufacturer of solar inverters.,,,New York,,,
0,Natural Currents Energy Group,NA,NA,Natural Currents Energy Group,Natural Currents Energy Group,,New York,,"Hydro,Renewable Energy,Solar,Wind energy,Ocean","Design manufactures and installs renewable energy systems including hydro, tidal, ocean energy as well as commercial scale solar electric and wind systems.",,,New York,,,
0,Quixotic Systems Inc,NA,NA,Quixotic Systems Inc,Quixotic Systems Inc,,New York,10014,"Services,Solar",Installation services company specialising in small-scale solar projects in the New York area.,,,New York,,,
0,Solar Thin Power,NA,NA,Solar Thin Power,Solar Thin Power,,New York,,Solar,"Solar Thin Power was formed to seek out solar projects in North America, Asia and Europe to participate in financing, project management and marketing.",,,New York,,,
0,FLS Energy Inc,NA,NA,FLS Energy Inc,FLS Energy Inc,,North Carolina,28711,"Services,Solar",North Carolina based company that provides commercial and home PV installations and the design of solar hot water systems. FLS also offers consulting services for companies looking for energy efficient solutions.,,,North Carolina,,,
0,MegaWatt Solar,NA,NA,MegaWatt Solar,MegaWatt Solar,,North Carolina,,"Renewable Energy,Solar","North Carolina-based, technology-centric renewable energy company that delivers scalable solar power generation systems to the utility market.",,,North Carolina,,,
0,SBM Solar,NA,NA,SBM Solar,SBM Solar,,North Carolina,,Solar,SBM Solar is a solar panel manufacturer based in North Carolina.,,,North Carolina,,,
0,"All Solar, Inc.",719-372-3808,www.asolarelectric.com ,"All Solar, Inc.","All Solar, Inc.",1463 M St,Penrose CO,81240,Solar,,http://www.asolarelectric.com,,Penrose CO,,,
0,Solaris Nanosciences Corp,NA,NA,Solaris Nanosciences Corp,Solaris Nanosciences Corp,,Rhode Island,2903,Solar,"Focused on developing nanoscale materials for large applications including the solar energy, display and vision markets.",,,Rhode Island,,,
0,Ahura Energy Concentrating Systems Inc.,NA,NA,Ahura Energy Concentrating Systems Inc.,Ahura Energy Concentrating Systems Inc.,,San jose,95134,"Renewable Energy,Solar","CPV, CST and Hybrid CPV and CST",,,San jose,,,
0,Regenesis Power,NA,NA,Regenesis Power,Regenesis Power,,Simi Valley,,"Renewable Energy,Solar",A renewable energy-service Company that owns and operates solar assets in the U.S.,,,Simi Valley,,,
0,Suez Renewable Energy North America,NA,NA,Suez Renewable Energy North America,Suez Renewable Energy North America,,Texas,,"Biomass,Hydro,Solar,Wind energy","Developer of wind generation projects as well as pursuing developments in biomass, hydro and solar plants in North America.",,,Texas,,,
0,Texas Instruments Incorporated,NA,NA,Texas Instruments Incorporated,Texas Instruments Incorporated,,Texas,75243-4136,Solar,"Manufactures devices for digital signal processing and analogue technologies, including a DC/DC boost converter which could be an enabling technology for solar and fuel cells in portable electronics.",,,Texas,,,
0,Solar UV Solutions,NA,NA,Solar UV Solutions,Solar UV Solutions,,United States,,"Efficiency,Renewable Energy,Solar",SunQuest250,http://solaruvsolutions.com,,United States,,,
0,New Grid Energy Solutions,NA,NA,New Grid Energy Solutions,New Grid Energy Solutions,3704 Macomb St,Washington DC,20016,"Biomass,Buildings,Efficiency,Geothermal energy,Services,Solar",Renewable Energy and Energy Efficiency Services,http://new-grid.com/,,Washington DC,,,
0,A O Smith,NA,www.hotwater.com/ ,A O Smith,A O Smith,,Wisconsin,,"Efficiency,Solar,Hydro",Wisconsin-based based company that makes both water heating equipment and electric motors and also is in the water treatment business. Its water heating focus includes a focus on high-efficiency and solar-suitable equipment.,http://www.hotwater.com/,,Wisconsin,,,
0,CTC Solar,NA,NA,CTC Solar,CTC Solar,,,,Solar,US-based solar project developer.,,,,,,
0,ClearSpot Energy,NA,NA,ClearSpot Energy,ClearSpot Energy,,,,Solar,US-based solar project developer for rooftop commercial installations.,,,,,,
0,Costco,NA,NA,Costco,Costco,,,,Solar,US-based wholesaler. Costco is involved with rooftop solar installations located at it's various stores.,,,,,,
0,Dynamic Worldwide Solar Energy,NA,NA,Dynamic Worldwide Solar Energy,Dynamic Worldwide Solar Energy,,,,Solar,US-based solar developer and financer.,,,,,,
0,Genesis Electronics,NA,NA,Genesis Electronics,Genesis Electronics,,,,Solar,"Technology company, focusing on consumer applications for solar energy and alternative energy sources.",,,,,,
0,Green Power Group Ltd,NA,NA,Green Power Group Ltd,Green Power Group Ltd,,,,Solar,A company under Nixon International Group specilized in solar technology R&D.,,,,,,
0,Lectrique Solaire LLC,NA,NA,Lectrique Solaire LLC,Lectrique Solaire LLC,,,,Solar,Designs and manufactures solar photovoltaic and thermal products.,,,,,,
0,Mainstream Energy LLC,NA,NA,Mainstream Energy LLC,Mainstream Energy LLC,,,,"Services,Solar","Focused on manufacture, sales and installation of solar equipment and services via distribution subsidaries.",,,,,,
0,PAIS Industries Group,NA,NA,PAIS Industries Group,PAIS Industries Group,,,,Solar,"Plans to supply solar-grade silicon, conditional on an agreement with the Inner Mongolia Autonomous Region to develop and process locally mined silicon in solar-grade end product.",,,,,,
0,PPP Equipment Corporation,NA,NA,PPP Equipment Corporation,PPP Equipment Corporation,,,,Solar,"PPP-E designs, produces and markets Chemical Vapor Deposition (CVD) reactors and converter systems producing high-purity polysilicon used to produce wafers for the production of solar cells and silicon chips.",,,,,,
0,Palo Verde College,NA,NA,Palo Verde College,Palo Verde College,,,92225,Solar,California based college involved in a solar campus project in co-operation with BP Solar.,,,,,,
0,Redwood Renewables,NA,NA,Redwood Renewables,Redwood Renewables,,,,Solar,Developing integrated solar roofing projects,,,,,,
0,Solium Power Corporation,NA,NA,Solium Power Corporation,Solium Power Corporation,,,,Solar,"Solium Power Corporation, a subsidiary of Hybrid Technologies Inc. is dedicated to the research, development and application of Solar Panels and Lithium powered technology as an alternative power source for residential and commercial dwellings.",,,,,,
0,Staples,NA,NA,Staples,Staples,,,,Solar,"Global retailer of office products, with two solar power systems totaling 560kW on stores in California.",,,,,,
0,TSNergy,NA,NA,TSNergy,TSNergy,,,,Solar,TSNergy offers building integrated solar electric solutions for residential and commercial use.,,,,,,
0,Tahoe Water Systems,NA,NA,Tahoe Water Systems,Tahoe Water Systems,,,,"Solar,Wind energy",Develops a self-contained solar/wind based water pumping technology.,,,,,,
